Name;Phone;Email;City;Address;WorkingTime
РУСАВТО;79996001573;Russavvto@yandex.ru;Астрахань и область;ул. Латвийская, д. 1Б/1.;с 9.00 до 18.00
Такси им. Люка Бессона;79678245546;summerwolf@yandex.ru;Астрахань и область;;
Гарант;79086140406;Taxopark.garant@yandex.ru;Астрахань и область;;
Алиот;79275696099;aliot-astra11624802@yandex.ru;Астрахань и область;ул. Энергетиков шоссе, д.  5Д/1.;с 09.00 до 18.00, пн-пт.
Приоритет;79881773000;olesya231283@yandex.ru;Астрахань и область;;
Best-RUS;79673337380;giperbank30@gmail.com;Астрахань и область;ул. 28-ой Армии , д.14/1, офис 44;с 9.00 до 19.00.
СПЕКТР;79275604388;taxi-spectr@yandex.ru;Астрахань и область;ул. Брестская, д. 34;с 9.00 до 17.00.
Азимут;;;Астрахань и область;;
MEDIA GRUPP;;;Астрахань и область;;
Юг-Такси. Моментум;;;Астрахань и область;;
EXPERT PARK;;;Астрахань и область;;
iCab;;;Астрахань и область;;
Taxist;;;Астрахань и область;;
Премиум;;;Астрахань и область;;
ООО «Алекс-Групп»;;;Астрахань и область;;
Олимп;;;Астрахань и область;;
БТК;;;Астрахань и область;;
КАТАЛА-VIP;;;Астрахань и область;;
ИП Канкулов Леонид Русланович;;;Астрахань и область;;
Гэра;;;Астрахань и область;;
Оптима;;;Астрахань и область;;
Юг-такси;;;Астрахань и область;;
BestTaxi;79130264420;Oleg_suxov_95@bk.ru;Барнаул;Барнаул, ул. Воровского, д. 161.;с 8.00 до 22.00.
Каскад;79236541216;AlexDesant888@yandex.ru;Барнаул;Барнаул, ул. Эмилии Алексеевой, д. 2Б.;с 8.00 до 20.00
ПЕРВЫЙ Парк;79635377722;info@1park.pro;Барнаул;;
Альт Терра;79021400099;fedko-egorova@yandex.ru;Барнаул;;
ИП Карпова Л.В.;79069444565;KarpovaLubov2017@yandex.ru;Барнаул;Барнаул, ул. Власихинская, д. 40;с 10.00 до 19.00, пн-пт.
ПУЛЯ;79293251349;lopatkinb@mail.ru;Барнаул;;
Светофор;79994762878;pavelesipenok@yandex.ru;Барнаул;Барнаул, ул. Титова, д. 37.;с 10.00 до 00.00.
Профит;79646037069;Profit2217@yandex.ru;Барнаул;Барнаул, ул. Новороссийская, д.47.;
ООО «Автопарк»;79609475589;in469@mail.ru;Барнаул;Барнаул, ул. Промышленная, д. 104.;
Гараж;79913699635;kovalenkoanna2018@yandex.ru;Барнаул;;
BOOMER;79130828869;lyubovsmolyakowa@yandex.ru;Барнаул;Барнаул, ул. Малахова, д.95;с 10.00 до 19.00, пн-пт.
Лидер;79833504726;chervyakov377@yandex.ru;Барнаул;Барнаул, ул. Солнечная поляна дом 35, кв.225;с 8.00 до 22.00.
Партнер Брн;79132108454;anthon.myalkin@yandex.ru;Барнаул;;
Альфа;79628174159;panta-ray-rock@yandex.ru;Барнаул;;
РосАвтоПрокат;79132723563;Golubev.e.a.35@mail.ru;Барнаул;;
Такси Союз;79132100999;kopilovgorog@yandex.ru;Барнаул;Барнаул, пр. Строителей, д. 43, офис 234;c 9.00 до 17.00, пн-сб.
Автомир;;;Барнаул;;
Мистраль;;;Барнаул;;
АвтоМир+;;;Барнаул;;
Барнаул;;;Барнаул;;
"ООО ""Пилот""";;;Барнаул;;
Автолайн;;;Барнаул;;
Такси 22;;;Барнаул;;
S.i.n.;;;Барнаул;;
ООО ДРАЙВ Барнаул;;;Барнаул;;
Народный;;;Барнаул;;
АБ Центр;;;Барнаул;;
Мирный031;79997003145;SERGEJ.POPKOV.1993@yandex.ru;Белгород и область;Белгород, ул. Коммунальная, д. 2/1.;с 9.00 до 18.00.
Арт31;79623070540;dmitryilysak@yandex.ru;Белгород и область;;
Метелица;79803863626;avtoparc@yandex.ru;Белгород и область;;
Таксон31;79155724929;sasha_ig@mail.ru;Белгород и область;;
Пилот;74722407080;pilotbelgorod@yandex.ru;Белгород и область;;
ЗаяцАвто;79611637020;s.al.saenko@yandex.ru;Белгород и область;;
КРЕАТИВ;79997009097;kreativ-31@yandex.ru;Белгород и область;;
ВиРус;79205755571;Rkhodykin@yandex.ru;Белгород и область;;
Taxi City;79051737979;aleksanderkursky@yandex.ru;Белгород и область;;
Альфа;79194399888;belgorod-taxi-alfa@yandex.ru;Белгород и область;;
ИП Шевелёв Е И;79205911018;shevelev_e@mail.ru;Белгород и область;;
Такси-Фора;79300880011;antonov.bel@mail.ru;Белгород и область;;
Людмила;79606259361;dangoretov@yandex.ru;Белгород и область;;
Автофлот;;;Белгород и область;;
Салют;;;Белгород и область;;
АВРОРА;;;Белгород и область;;
Пегас;;;Белгород и область;;
ИРБИС 31;;;Белгород и область;;
Дубровка;;;Белгород и область;;
Мега;;;Белгород и область;;
ФОРТУНА31;;;Белгород и область;;
5 Звёзд;;;Белгород и область;;
ТАКСОВИК;;;Белгород и область;;
Планета;;;Белгород и область;;
Сокол;;;Белгород и область;;
Индекс;79116002160;info.index53@yandex.ru;Великий Новгород и область;;
Такси Мини;637997;Aleksan.59@yandex.ru;Великий Новгород и область;;
VNtaxi;;;Великий Новгород и область;;
Звездный;;;Великий Новгород и область;;
ИП Николаенко;79084406606;t4xi@yandex.ru;Владивосток и Приморский край;;
Шанс;79146800020;chancetaxi@yandex.ru;Владивосток и Приморский край;;
АЛЮР-АВТО;79046271111;aluravto@gmail.com;Владивосток и Приморский край;Владивосток, ул. 40 лет ВЛКСМ,  д.17.;Круглосуточно.
Ритм Автоплатеж;79940054001;Ritmrf@yandex.ru;Владивосток и Приморский край;;
КИМ;79147052557;2752557@gmail.com;Владивосток и Приморский край;Владивосток, ул. Крыгина, д. 105.;с 10.00 до 18.00.
Avtomili;79089618185;yumilit@yandex.ru;Владивосток и Приморский край;;
Ника;79240041333;nika.vlady@yandex.ru;Владивосток и Приморский край;;
Биллион;79147034426;tvd-vvo@yandex.ru;Владивосток и Приморский край;Владивосток, ул. Советская, 2А стр 3;с 10.00 до 18.00, Пн-Пт.
Автотрейд-м;79147966750;avtotrade-m.vl@yandex.ru;Владивосток и Приморский край;;
Комфорт ДВ;79147075778;Comfortdv@yandex.ru;Владивосток и Приморский край;Владивосток, ул. Калинина, д. 84с1, офис 14;с 9.00 до 17.00, Пн-Пт.
Тринадцать;79020584415;svetlanka_pr@mail.ru;Владивосток и Приморский край;;
Avto_SKY;79146727752;avto.sky.avto@yandex.ru;Владивосток и Приморский край;;
Мистраль;;;Владивосток и Приморский край;;
Эгершельд;;;Владивосток и Приморский край;;
ТВД Сервис;;;Владивосток и Приморский край;;
ФОРКИС.АВТО;;;Владивосток и Приморский край;;
АТЛАНТ [ВЛАДИВОСТОК];;;Владивосток и Приморский край;;
Экспансия Сибирь;;;Владивосток и Приморский край;;
Парк Рио;79610855520;park-rio11605854-vlg@yandex.ru;Волгоград и область;;
Таксопарк 34;79275115045;stepanyan-serj@yandex.ru;Волгоград и область;ул. Рокоссовского, д.29Б.;с 9.00 до 18.00.
На Линии;79616622216;parkpost14@yandex.ru;Волгоград и область;;
Роут 34;79608947747;kseniya.motorina28@yandex.ru;Волгоград и область;ул. пр-т имени Жукова, д. 31, офис 301.;с 9.00 до 19.00, Пн-Сб.
BREND34;79996286132;BREND34VLG@yandex.ru;Волгоград и область;;
ИРС (ВЛГ);78442605070;irstaxi@yandex.ru;Волгоград и область;ул. Менжинского, д. 23Б.;с 9.00 до 18.00, Пн-Пт.
Красный;79275109909;taxopark134@yandex.ru;Волгоград и область;ул. Качалова, д. 39А.;с 09.00 до 18.00.
vlg.Lider;755650;;Волгоград и область;ул. площадь им. Дзержинского, д. 1, офис 102.;с 9.00 до 17.00.
ИП Амирова Эльвира Климовна;79649642255;amirov.part@yandex.ru;Волгоград и область;;
Saturn34;79608880616;Taxsaturn@yandex.ru;Волгоград и область;ул. Карбышева, 1А, кабинет №7;с 9.00 до 16.00, Пн-Пт, с 10.00 до 13.00, сб до Вс.
Flash-Auto;79610744400;Flash-AutoVLG@yandex.ru;Волгоград и область;ул. 40 лет ВЛКСМ, д. 72.;с 9.00 до 17.00
ААА ТК Волжский;79275106101;taxivolgograd@yandex.ru;Волгоград и область;ул. Карла Маркса, д.52;Круглосуточно.
Вираж;966366;motor252525@yandex.ru;Волгоград и область;ул. Морозовская, 1.;с 10.00 до 17.00, Пн-Пт.
Fortuna;79889898909;abdinov.timur@mail.ru;Волгоград и область;;
Таксометр;79616815595;niki937@yandex.ru;Волгоград и область;г. Волжский, ул. Ленина, 25Б.;с 9.00 до 18.00, Пн-Пт.
Премиум momentum;79275049992;eraliewdamir@yandex.ru;Волгоград и область;ул. Маршала Воронова, 14.;Круглосуточно.
Рублевка;79696506550;xai5436@yandex.ru;Волгоград и область;г.Волжский, ул. Дружбы, 83А, 2этаж, офис №7.;с 10.00  до  17.30, Пн-Пт.
Люкс;79996257597;luxurytaxi.sokolov@yandex.ru;Волгоград и область;Волгоградская область, г. Волгоград, ул. Грушевская, д.10;с 9.00 до 18.00, Пн-Пт.
"ООО ""Микс-Карт Волгоград""";605160;mixcart.taxi@yandex.ru;Волгоград и область;ул. Баррикадная, 1Б, офис 312.;с 9.00 до 21.00, Пн-Пт.
ООО АВИС;79880133418;12www97@bk.ru;Волгоград и область;пр-т Ленина, 98Л.;
ТЕМП 34;79064000410;taxopark.temp@yandex.ru;Волгоград и область;г.Волгоград, ул. Баррикадная, д. 24\30, оф. 26.;Круглосуточно.
Grand TK;78007007485;Vlgtaxi34@yandex.ru;Волгоград и область;ул. Землянского, 1, офис 10.;с 9.00 до 17.00, Пн-Пт.
ПАНДА;560888;Pandadovezi@yandex.ru;Волгоград и область;ул. Рабоче-Крестьянская, 44, офис 25.;с 9.00 до 17.00, Пн-Пт.
Город;79377192419;Prokatavto-34@yandex.ru;Волгоград и область;;
АИРусс;79026589979;airuss2018@yandex.ru;Волгоград и область;ул. пр-т Ленина, д.89;с 9.00 до 17.00.
Такси 777;;;Волгоград и область;;
Блиц-Такси;;;Волгоград и область;;
Вежливое Такси;;;Волгоград и область;;
Таксопарк 034;;;Волгоград и область;;
Наше Такси;;;Волгоград и область;;
BERGER Drive;;;Волгоград и область;;
BORDER;;;Волгоград и область;;
Гранд Авто;;;Волгоград и область;;
"ООО ""СИТИ-ТАКС""";;;Волгоград и область;;
Северный Путь;;;Волгоград и область;;
БЛИЦ-2019;;;Волгоград и область;;
Космос;;;Волгоград и область;;
Форсаж 134;;;Волгоград и область;;
ВиЛи- Моментум;;;Волгоград и область;;
БЛИЦ-2019;;;Волгоград и область;;
06-06-02;;;Волгоград и область;;
Пегас-M;;;Волгоград и область;;
"ТК ""Базис""";;;Волгоград и область;;
230 футов;79056580877;mr.kalininroman@yandex.ru;Воронеж и область;;
Аист;79204077704;AiSt012019@yandex.ru;Воронеж и область;ул. Челюскинцев, 101, офис 36.;с 10.00 до 20.00, Пн-Пт.
АЛАДДИН;79038542194;;Воронеж и область;;
Алфавит;79601619779;driver@3taxi.ru;Воронеж и область;;
ВИКТОРИЯ;74733335123;Admin@yandexvrn.ru;Воронеж и область;Воронеж, ул. Ломоносова 2б;с 8.30 до 17.30, Пн-Пт.
Выбор;79525487829;sm.aly@yandex.ru;Воронеж и область;;
Гараж 36;79081478812;Cheprasov1407@yandex.ru;Воронеж и область;ул. Лидии Рябцевой, 42, офис 9.;с 9.00 до 18.00.
Гараж_ВРН;79042144218;ya2144218@yandex.ru;Воронеж и область;ул. Лидии Рябцевой, 42;с 10.00  до  16.00.
Джокер GOLD;79518513798;largus1013@yandex.ru;Воронеж и область;ул. пр-т Патриотов, д. 43Н, офис 310.;с 10.00 до 17.00, Пн-Пт.
Джокер NEXT;79518513798;largus1013@yandex.ru;Воронеж и область;Пр-кт Патриотов, д.43Н;с 10.00 до 17.00, Пн-Пт.
ДРАЙВ;79019935333;driver-vrn@mail.ru;Воронеж и область;ул. 9 января, д. 231А;с 10.00 до 19.00, Пн-Пт.
ЕКХ;79515620890;EKX36R@yandex.ru;Воронеж и область;;
ИП Свиридов Василий Евгеньевич;79192316666;sviridov-vrn@yandex.ru;Воронеж и область;ул. Кривошеена, 66Б/2.;с 9.00 до 18.00, Пн-Пт, с 10.00 до 16.00, Сб.
Каскад;79038586199;;Воронеж и область;ул. 20-летия Октября, 33, офис 5.;с 10.00 до 18.00, Пн-Пт.
Ласточка Воронеж;79056563586;lastochka_vrn@mail.ru;Воронеж и область;;
Местные;74732954951;Kaminsckyalexandr@yandex.ru;Воронеж и область;;
Норма;79204480789;norma-vrn11495622@yandex.ru;Воронеж и область;;
"ООО ""Форд-Сити""";2758888;taxi-gorod@bk.ru;Воронеж и область;ул.Антонова-Овсеенко, д.7, оф.401;с 8.00 до 17.00.
Пиксель;79042110084;Pixel-taxi@yandex.ru;Воронеж и область;;
Союз;79107323262;vrn_biplan@mail.ru;Воронеж и область;ул. Хользунова, д. 107а.;с 9.00 до 18.00, Пн-Пт.
Такси ДОН;79191817007;elavlinski007@gmail.com;Воронеж и область;ул. Коперника, д.67.;с 9.00 до 18.00.
Таксоход;79202283159;yakor136@yandex.ru;Воронеж и область;ул. Лизюкова, 17;с 10.00 до 18.00, Пн-Пт.
Феникс;79066776888;fenixvrn2016@gmail.com;Воронеж и область;ул. Генерала Лизюкова, д.61В.;с 10.00 до 18.00, Пн-Пт, с 10.00 до 16.00, Сб.
AlfaTaxi;79518683147;alfataxi13212942@yandex.ru;Воронеж и область;г. Воронеж ул. Грамши 73 Б;с 9.00 до 18.00, Пн-Пт, с 9.00 до 16.00, Сб.
Nero;79009259019;Neropark@yandex.ru;Воронеж и область;;
Platinum;74732286123;Platinum-taxivrn@yandex.ru;Воронеж и область;ул. Матросова, 47, офис 303.;с 10.00 до 18.00, Пн-Пт.
RAID;74732994000;yandex@lekar.store;Воронеж и область;пер. Серафимовича, д.32А, офис 221.;Круглосуточно.
RED STAR Taxi;79601242411;taksi136-3@yandex.ru;Воронеж и область;ул. Волгоградская, 42А.;с 9.00 до 19.00, Пн-Пт.
VATT;79081442395;vkletchatom@mail.ru;Воронеж и область;;
Губерния;;;Воронеж и область;;
Призма;;;Воронеж и область;;
Марсель Воронеж;;;Воронеж и область;;
Гранд-Авто;;;Воронеж и область;;
АвтоПрофи;;;Воронеж и область;;
АРМАГЕДДОН;;;Воронеж и область;;
ГрандКар 2.0;;;Воронеж и область;;
Уберлин;;;Воронеж и область;;
BORDER;;;Воронеж и область;;
Чайка_Врн;;;Воронеж и область;;
Звездный;;;Воронеж и область;;
Такси Блюз;;;Воронеж и область;;
Я. Форсаж;79127445888;forsazh-msc@yandex.ru;Ижевск;;
18район;73412643484;job-izh@yandex.ru;Ижевск;;
шефмобиль.рф;73412773638;evamobile@yandex.ru;Ижевск;ул. Маяковского, д. 1А.;с 9.00 до 18.00, Пн-Пт.
time 2209 izhevsk;79090663878;solsss@list.ru;Ижевск;ул. 8-ого марта, д. 16А, офис 102.;с 9.00 до 16.00, Пн-Пт.
com.dil - Izh;79225050577;com.dil@mail.ru;Ижевск;ул. Маяковского, д. 35.;с 9.00 до 17.00.
ТАЧКИ;73412771120;;Ижевск;ул. Удмуртская, д. 255В.;
Легион18Иж;79913988353;legion-taxilegion@yandex.ru;Ижевск;ул. Маяковского 21 офис 26;с 9.00 до 17.00, Пн-сб.
АС МОТОРС;79658513000;Konyshev0796@yandex.ru;Ижевск;ул.Воткинское шоссе,49;с 10.00 до 17.00.
Гранит;79641826000;;Ижевск;;
Перевозчик;79225175056;PerevozIzh@yandex.ru;Ижевск;ул. Красная, д. 122А, офис 19;с 12.00 до 15.00.
Экспресс;79043148632;park234595@yandex.ru;Ижевск;г.Ижевск, ул. Максима Горького, д. 43, офис 211;с 9.00 до 14.00, Пн-Пт.
Космос;79199078539;ales.korovin@yandex.ru;Ижевск;;
Мегаполис;79828197117;megapolis018@yandex.ru;Ижевск;;
АвтоПрофи;;;Ижевск;;
Олимп;;;Ижевск;;
Техномедиа;;;Ижевск;;
Мир;;;Ижевск;;
Мир18;;;Ижевск;;
АвтоЛайн;;;Ижевск;;
TACHKI;;;Ижевск;;
Молния 18;;;Ижевск;;
Белка;;;Ижевск;;
Союз 18;;;Ижевск;;
Комфорт;79377711558;;Казань;;
Миллениум;79674691382;Markov.rf@yandex.com;Казань;ул. Халитова, д.4к4.;с 9.00 до 21.00.
bro.taxi;78432038520;martynayu@yandex.ru;Казань;ул. Аделя Кутуя, д. 167.;с 10.00 до 20.00.
ЭР_Авто;79270391615;t2391615@gmail.com;Казань;ул. проспект Фатыха Амирхана, д. 30.;с 10.00 до 17.00.
AvtoAP;79377730006;AvtoAP-KZN@yandex.ru;Казань;;
Drive Auto;78432454547;chulpanauto@yandex.ru;Казань;ул. Родины, д.41.;
Гарант;79274233944;;Казань;ул. Гаврилова, д. 10А.;с 9.00 до 17.00.
Максавто;2163222;amir38mannpov@yandex.ru;Казань;ул. Салиха Сайдашева, 12, офис 227.;с 9.00 до 18.00, Пн-Пт.
Блэк Стар;79872344585;Ganieva73@inbox.ru;Казань;г.Казань, ул. Четаева,33;с 10.00 до 18.00, Пн-Пт
Кирыч;79539987202;kirillzinowiev@yandex.ru;Казань;;
Гарант;79063290384;Taxiya.garantkazan@yandex.ru;Казань;ул.пр. Х. Ямашева, д.46/33;с 9.00 до 18.00.
Vip;79520488818;Kzn_Vip@bk.ru;Казань;;
ПАРТНЕР КЗН;79274923792;e-taxikazan@yandex.ru;Казань;ул. Роторная, 1В.;с 10.00 до 18.00.
LuckyPark;79950112775;luckyparkcity@yandex.ru;Казань;ул. Коммунистическая, 13.;с 6.00 до 16.00, Пн-Пт.
КАМАВТО;79393364774;Lena.kamalieva@yandex.ru;Казань;;
Такси Мотор;79625645140;taximotorkzn@yandex.ru;Казань;ул. Роторная, 1В;с 9.00 до 18.00.
ООО ЮЛАВТО;79003220003;yulavto-dk@yandex.ru;Казань;ул. Оренбургский тракт, 160, офис 208.;с 10.00 до 16.00.
Такси-Класс г.Казань;79662500300;dinar14@ya.ru;Казань;ул. Родины, 7.;с 8.00 до 20.00.
Доктор авто;79274069596;Corredor86@yandex.ru;Казань;;
Avtocar16;78432595900;avtocar16@yandex.ru;Казань;;
Авангард;79655850523;shulgindv1985@yandex.ru;Казань;;
Победа-Казань;79600572424;pobedadriver@list.ru;Казань;ул. Тинчурина, 25.;
ЭТАЛОН;79046692508;;Казань;;
Гараж;2463365;;Казань;ул. Волгоградская, д.8к1;с 10.00  до  19.00, Пн-Пт.
ТрансКлассСервис;79662600600;ooo.trans-klass-service@yandex.ru;Казань;г. Казань, ул. Аметьевская магистраль д. 9, 2 этаж;с 9.00 до 18.00, Пн-Пт, с 10.00 до 15.00, Сб.
Автоквартал;79270391235;avto.kvartal16@yandex.ru;Казань;;
AUTOPARK;79325323310;orenburgavtopark@gmail.com;Казань;;
ZeelantFD;79179351485;artemk77@gmail.com;Казань;;
АвтоРитет;79274098381;ilnur.1221@yandex.ru;Казань;ул. Залесная, д. 130А;с 9.00 до 19.00, Пн-Пт.
Radfar;79274137392;rad-far@mail.ru;Казань;ул. Бухарская, 4.;с 9.00 до 18.00, Пн-Пт.
Klaxonkzn;79274102134;Klaxonkzn@yandex.ru;Казань;ул. Парижской коммуны, д. 25/39;с 9.00 до 19.00, Пн-Сб, с 9.00 до 16.00, Вс.
Five wheels;79503162294;fivewheels90@mail.ru;Казань;;
Фаворит Казань;74953749887;favorit777msk@yandex.ru;Казань;;
Такси 2;77965596040;;Казань;ул. Вересаево, 69Б.;
ТК МОБИЛ;79274585545;k.bulat817@yandex.ru;Казань;;
Столичный Извозчик;79093137737;xxx4595@mail.ru;Казань;Проспект Победы , д.100, ДЦ Долина Изобилия, офис 1;с 10.00 до 16.00, Пн-Пт.
Олрус Авто;79872154415;olrusauto@mail.ru;Казань;ул. Космонавтов, 42А, офис 22.;с 10.00 до 18.00, Пн-Пт.
ИП Котков А.С.;79178902160;Aleksandar.kotkoff@yandex.ru;Казань;Ул. Васильченко д.1 корп 153 оф.121б;с 10.00 до 18.00, Пн-Пт,  с 17.00 до 21.00, Сб-Вс.
МОТОРС;78432495460;taximotors116@yandex.ru;Казань;ул. Закиева, 12А.;с 9.00 до 17.00.
ИП Хусинов;;;Казань;;
Ecopark;;;Казань;;
Такси Прайм Казань;;;Казань;;
Успех;;;Казань;;
ИП Хамдамов;;;Казань;;
Вектор;;;Казань;;
Голд парк;;;Казань;;
Звёздный;;;Казань;;
Юпитер;;;Казань;;
Ип Забиров;;;Казань;;
ЕвроЛайн Карс;;;Казань;;
Рапид41;;;Казань;;
ЮМИ;;;Казань;;
Лайтком;;;Казань;;
Голд Стар;;;Казань;;
ТимерЛайн;;;Казань;;
AutoLine;;;Казань;;
KZNCity24;;;Казань;;
БОМБИЛА№1м;;;Казань;;
КАЗАНАВТО КЛУБ;;;Казань;;
Элита;;;Казань;;
Петрович;;;Казань;;
"ООО ""Блэк Стар""";;;Казань;;
Султан Плюс;;;Казань;;
Elit_Transfer;;;Казань;;
Профи;79615246289;alexandershapran@yandex.ru;Краснодар;;
Cklimkar;79614575073;cklimkar@yandex.ru;Краснодар;ул. Героя Яцкова,  д. 1/10.;с  8.00 до 20.00.
Викарт;734116144;vikart123@yandex.ru;Краснодар;"ул. Онежская, д. 60, литер ""В"".";
Platinum;79615944386;postal1708@yandex.ru;Краснодар;;
Центр.Такси;79054956495;centr.taxi495@yandex.ru;Краснодар;ул. Новороссийская, д.5.;с 10.00 до 18.00.
Cab.Yug;79885248507;cab.yug@yandex.ru;Краснодар;ул. Крупской, д. 33.;с 11.00 до 19.00.
ликана;79652230408;teimur.curbanov@yandex.ru;Краснодар;ул. Артюшкова, д. 23.;с  7.00 до 23.59.
ИП Макаров В.А.;79288475156;krdtaxi13@yandex.ru;Краснодар;ул. Красных партизан, д. 249.;
Региональное;79898096573;89898096573@mail.ru;Краснодар;ул. Дальняя, д. 39/1.;с 7.00 до 22.00.
Три таксиста;79282077093;das9977@ya.ru;Краснодар;;
Иосифов;79654609484;Vjbctq177@mail.ru;Краснодар;ул. Маяковского, д. 162/1,  офис 1.;с 9.00 до 18.00.
Альянс;79676564501;Alyans-Krasnodar23rus@yandex.ru;Краснодар;ул. Скобелева, д.1.;с 9.00 до 17.00.
Гранд_Парк;79094447287;juli27.09@mail.ru;Краснодар;ул. Чекистов,  д. 27.;с 8.00 до 21.00.
Гудпарк;79002700200;perovakrd@yandex.ru;Краснодар;ул. Селезнева, д. 2/5.;с 8.00 до 18.00.
А111;79528716286;b0rsh.krd@yandex.ru;Краснодар;ул. Новороссийская, д. 3/12.;с 10.00 до 17.00.
Экипаж;79298426658;pelih.galka@yandex.ru;Краснодар;;
Дилижанс;78612172310;taxy-deligans@yandex.ru;Краснодар;;
АВТОЛЮКС 123;79388686020;DIMA120484K@yandex.ru;Краснодар;ул. Дзержинского, д. 175.;с 10.00 до 18.00.
ПростоTaxsee;79180858787;JustTaxsee@yandex.ru;Краснодар;;
ПростоТакси;79180858787;wicked.provoker@yandex.ru;Краснодар;;
Таксопарк ЮГА №1;79654607774;vladislav474@yandex.ru;Краснодар;ул. Солнечная, д. 25, оф. 1.;
Паскаль;79184388774;karpenkomaykop@yandex.ru;Краснодар;;
Слияние;79298334341;profavto-k@yandex.ru;Краснодар;ул. Маяковского, д. 162/1, офис 1.;с 9.00 до 18.00, Пн-Пт, с 10.00 до 16.00, Сб.
Первый;79964176451;tax-1.krasnodar@yandex.ru;Краснодар;;
ООО Юнити;79180885188;unitykrasnodar@yandex.ru;Краснодар;ул. им.  Стасова, д. 178, корпус 2Ш.;
АВТОСОЮЗ;79898196060;Hose218352@gmail.com;Краснодар;ул. Российская, д. 28 лит. Ж, офис 11А.;с 10.00 до 16.00.
"ООО ""ККЮК""";79094656181;89094656181@YANDEX.RU;Краснодар;;
ИП Амиров Тимур;79649642255;amirov.part@yandex.ru;Краснодар;;
ИП Амирова Эльвира Климовна;79649642255;amirov.part@yandex.ru;Краснодар;;
СПБ-информ;79889558811;spbkrasnodar@mail.ru;Краснодар;;
Люкс;79184664444;amt-lux@ya.ru;Краснодар;ул. Камвольная,  д. 8.;с 10.00 до 17.00.
taxidrive;79898003120;drivertax@yandex.ru;Краснодар;;
Инновация;79676540150;nikolaevih.72@mail.ru;Краснодар;;
Автосоюз 23;79181527323;Maksim.Belenchenkov@yandex.ru;Краснодар;;
Такси Мир;79678048934;Alex197591@yandex.ru;Краснодар;;
04-10-00;79002442025;tiv1966trunov@yandex.ru;Краснодар;ул. Снесарева, 4;с 9.00 до 18.00, Пн-Сб.
АвтоЛига;79183300065;avtoliga001@yandex.ru;Краснодар;г. Краснодар, ул. Новороссийская, 174, 1 этаж, офис 7;с 7.00 до 19.00.
Гудзон;79628569999;gudzonpark@yandex.ru;Краснодар;;
Союз водителей;79648933877;souzvoditeley@yandex.ru;Краснодар;ул. Кожевенная, д.18, офис 28, 3й этаж.;с 9.30 до 16.00, Пн-Пт.
Юг-Авто;79182660309;av-p@list.ru;Краснодар;г.Краснодар ул. Первомайская, д.36;с 08.00 до 21.00, Пн-Пт, с 9.00 до 18.00, Сб.
24rent;79183242456;krd24rent@yandex.ru;Краснодар;г. Краснодар, ул. Российская, 361\4;с 9.00 до 18.00.
Город дорог;79384085858;;Краснодар;;
FormatAvto;79184414045;Thesecret071@gmail.com;Краснодар;;
СПК-2;79604949979;usenko.spk@yandex.ru;Краснодар;Краснодар, ул. Сормовская, д.3;с 9.00 до 18.00, Пн-Пт.
Такса-Motor;79183923039;taxa-soyuz@yandex.ru;Краснодар;г. Краснодар, ул.Гоголя, 135;
Метропарк-Краснодар;79186276111;metropark.krd@yandex.ru;Краснодар;г. Краснодар, ул. Рашпилевская, д. 321/1;с 9.00 до 16.00, Пн-Пт, с 8.00 до 11.00, Сб-Вс.
Energy;79883352244;Andrey1540@mail.ru;Краснодар;г. Краснодар, ул. Северная 255;с 9.00 до 17.00.
Pro Taxi23;79183458786;protaxi23@mail.ru;Краснодар;ул.40 лет победы, д. 97/2;с 9.00 до 17.00.
КСКраснодар;79186989790;Stellio@bk.ru;Краснодар;ул. Котлярова 17;с 7.00 до 19.00.
ИП Баринова Ольга Алексеевна;79891243226;taxifaeton23@yandex.ru;Краснодар;г. Краснодар, ул. Российская, д. 346;
АвтоПлюс;79182578090;avtoplus.tax@yandex.ru;Краснодар;г. Краснодар, ул. Трамвайная, д. 25, 5 этаж;
ИП Костыря Сергей Николаевич;79034583323;skgrouptaxi@yandex.ru;Краснодар;ул. Передовая, 59;с 9.00 до 18.00.
флагман логистик;79385005228;squortsoveu@yandex.ru;Краснодар;ул.Московская, д. 69а-10;с 10.00 до 18.00.
Федеральное такси;;;Краснодар;;
IP Rudik Evgeniy Gennadevich;;;Краснодар;;
Импульс123;;;Краснодар;;
ИП Иванов Д.П.;;;Краснодар;;
Извозчикъ;;;Краснодар;;
Федеральный Партнер;;;Краснодар;;
Другое Такси;;;Краснодар;;
Гранд авто;;;Краснодар;;
Лидер 23;;;Краснодар;;
ПРОФИ;;;Краснодар;;
Альт-Авто;;;Краснодар;;
PROFISIONAL;;;Краснодар;;
Навигатор Юг;;;Краснодар;;
ИП Дин Алексей Вадимович;;;Краснодар;;
Workcar3;;;Краснодар;;
Пульс;;;Краснодар;;
bro.taxi;;;Краснодар;;
ООО «АНРО»;;;Краснодар;;
AvtoPlato;;;Краснодар;;
ТрансАвто;;;Краснодар;;
Высота;;;Краснодар;;
ПИК Сервис;;;Краснодар;;
495 Крр;;;Краснодар;;
АвтоБенефит;;;Краснодар;;
Альфа;;;Краснодар;;
Профавто Юг;;;Краснодар;;
Паскаль;;;Краснодар;;
АЛЛЕ-ТАКСИ;;;Краснодар;;
СПК;;;Краснодар;;
МА Проф;;;Краснодар;;
"ООО ""Стимул""";;;Краснодар;;
Флагман КРД;;;Краснодар;;
Формула;;;Краснодар;;
PEGAS;;;Краснодар;;
Звездный;;;Краснодар;;
Bericar123;;;Краснодар;;
Партнер-Юг;;;Краснодар;;
Приоритет + Моментум;;;Краснодар;;
Favorite;;;Краснодар;;
Драйвер;;;Краснодар;;
Millenium;;;Краснодар;;
PRO TAXI REGION;;;Краснодар;;
01-23-00;;;Краснодар;;
AntaTaxi;;;Краснодар;;
Феникс;;;Краснодар;;
Такси Бразилия;;;Краснодар;;
Фаворит КРД;;;Краснодар;;
Стрелец;;;Краснодар;;
Белый Парк;;;Краснодар;;
BORDER;;;Краснодар;;
Яртакси;79135399118;;Красноярск;ул. Мира, д. 51.;с 10.00 до 17.00.
Мир;79135323899;vildmaks@yandex.ru;Красноярск;ул. Вавилова, д. 41Б-113.;
АвтоFresh;79535858966;Autofresh@indox.ru;Красноярск;ул. Караульная, д. 25Д/2.;с 10.00 до 20.00, Пн-Пт.
Альфа-такси Красноярск;79232911911;park-911@yandex.ru;Красноярск;ул. 4-ая Дальневосточная,  д. 63 стр. 1.;с 11.00 до 17.00, Пн-Пт.
ЭльКрас;79832875443;ellkras@yandex.ru;Красноярск;ул. Рокосовского,  д. 11.;с 10.00 до 18.00.
Такси ДС;79135320088;dnakaznov1@yandex.ru;Красноярск;ул. Маерчака, д. 53Г.;с 9.00 до 17.00.
Такси Шеф;79658922546;taxizheleznogorsk@yandex.ru;Красноярск;ул. Свердлова, д. 35.;
ИП Амиров Тимур Красноярск;79649642255;amirov.part@yandex.ru;Красноярск;;
Legal Team 2;79232725859;Job@taxipark.city;Красноярск;ул. Караульная, д. 34А.;с 9.00 до 18.00.
Антарес база;79535884597;ivan.antares2018@yandex.ru;Красноярск;;
Авто Стандарт;79029271203;autostandar@yandex.ru;Красноярск;г. Красноярк, ул. Академика Павлова 1, стр. 2, оф 236.;с 10.00 до 18.00, Пн-Пт
Dream Team;2509898;Dumacdk1@mail.ru;Красноярск;ул. Вавилова, 2А, стр.18, офис 303.;с 10.00 до 18.00.
Альянс;78007004858;24uber@gmail.com;Красноярск;ул. Молокова, 37А, офис 3-06.;с 9.00 до 19.00.
ИП Ластовский В.П;79082212809;vitaly.lastovsky@yandex.ru;Красноярск;ул. Историческая, д.116;с 10.00 до 15.00, Пн-Сб.
СитиПарк;79233555886;cityparkkrsk@yandex.ru;Красноярск;ул. Красномосковская, 76, пом. 17, офис 2.;Круглосуточно.
Пассажир Красноярск;79676123172;passazhir674936@yandex.ru;Красноярск;;
Трезвый водитель;73912711333;taxi.yandex24@gmail.com;Красноярск;ул. Ленина, 221А.;с 10.00 до 21.00, Пн-Пт.
Auto Standart;;;Красноярск;;
БархатTaxoПарк;;;Красноярск;;
Красавторент плюс;;;Красноярск;;
Express;;;Красноярск;;
Звёздный;;;Красноярск;;
ТАКСИ ХАРЭТС;;;Красноярск;;
Prime Такси;;;Красноярск;;
"ООО ""Красавто""";;;Красноярск;;
Треал;;;Красноярск;;
Антарес;;;Красноярск;;
Гусли;;;Красноярск;;
Авторитет;;;Красноярск;;
Город Такси;;;Красноярск;;
Легенда 2,5%;;;Красноярск;;
Ё-такси;;;Красноярск;;
Nadezhda;;nadezhdataxi@mail.ru;Липецк и область;ул. Механизаторов, 15 Б, оф. 1;
ШЕФ;;ploton48@yandex.ru;Липецк и область;ул. Катукова, 5, офис 5;
ЯТАКСИ48;;yaroslavwin@yandex.ru;Липецк и область;ул. Советская, 66б, офис 301;
ВиРус;;Rkhodykin@yandex.ru;Липецк и область;;
БУМЕРАНГ;;taxilip@yandex.ru;Липецк и область;ул. Гоголя, д.1;
Надежда Л;;duhan4@yandex.ru;Липецк и область;Орловское шоссе, 10А, 2 эт, оф.1;
Победа;;Zawalenkow.alex@yandex.ru;Липецк и область;ул. Тельмана, оф.5;
Клуб Такси;;zakaztroyka@yandex.ru;Липецк и область;ул. Космонавтов, 2;
48 РЕГИОН;;acm48@mail.ru;Липецк и область;ул. Перова, 2Ж , офис 7;
Такси СПАРТАК;;spartak-lipetzk11306494@yandex.ru;Липецк и область;ул. Терешковой, 11/1;
Гранд-Такси;;l81l@mail.ru;Липецк и область;ул. Опытная, 11В/1;
Такси Юг;;metrika.capital-invest26@yandex.ru;Махачкала;—;
Каспий;;kaspiytaxi@yandex.ru;Махачкала;ул.Братьев Нурбагандовых, 47б;
Taxi-Lucky;;taxi-lucky05@yandex.ru;Махачкала;—;
Мусаффир;;musafir500@yandex.ru;Махачкала;—;
Хаял;;ismailov010@mail.ru;Махачкала;ул. Коркмасова, 49;
LIVE;;malaxova.t.v@yandex.ru;Махачкала;—;
ООО «Такси Столица»;;Аrturaliev631@yandex.ru;Махачкала;ул. Коркмасова, 18, к.205, 2 этаж;
06-06-02;79851670355;slukhay@yandex.ru;Москва и область;;
1520;79253772564;;Москва и область;;
ИП БАЛАНДИН РУСТАМ РАДЖАБОВИЧ;79197779439;rustambalandin1989@ya.ru;Москва и область;ул. Гришина,  д. 23.;с 9.00 до 21.00.
Миг;79013693286;Sergei198426@yandex.ru;Москва и область;;
Gold Taxi;79154155590;aper.4@yandex.ru;Москва и область;ул. Широкая, д. 12.;с 10.00 до 22.00.
10 Рубликов Заказ;79263608166;qqq523@mail.ru;Москва и область;;
6o6;74951201215;;Москва и область;ул. Борисовские пруды,  д. 1с1.;с 10.00  до 19.00.
7 Таксопарк;79055639061;info@7-taxi.ru;Москва и область;ул. Новомарьинская , д. 18, пом.3, 1 этаж;с 9.00 до 20.00.
а1-такси;79295985505;nosko.sk@gmail.com;Москва и область;1-я ул. Измайловского зверинца, д.8.;с 10.00 до 19.00.
авеню такси;79636904444;;Москва и область;ул. Академика Анохина, д. 5К1.;с 9.00 до 17.00.
Авто Партнер;79153003008;Platkov-m@yandex.ru;Москва и область;;
Авто Финанс;79653777111;afstaxi@yandex.ru;Москва и область;ул. 5-я Кабельная, д. 2с1, 2 этаж.;с 10.00 до 19.00.
АВТО ЮРОЛ;79164725600;avtoyrol@yandex.ru;Москва и область;ул.Пятницкое шоссе, д. 45, кв. 11;с 9.00 до 22.00.
Авторент;79169994083;autorentmsk@gmail.com;Москва и область;Московская область, г. Мытищи, ул. Колонцова, д.5, корпус  лит. 02Б, комната 512;с 10.00 до 17.00, Пн-Пт, с 11.00 до 14.00, Сб.
АвторТакси2018;79629142777;taximatvey777@yandex.ru;Москва и область;ул. Фадеева, д. 6с2.;Круглосуточно.
АЗАТ ТАКСИ;79266738077;ats-81@mail.ru;Москва и область;;
Азимут - Такси;74959237555;azimuttaxi@yandex.ru;Москва и область;ул. Осенняя, д. 23.;с 12.00 до 20.00.
Азимут-ТК;74957277130;Azimyt-tk@mail.ru;Москва и область;г. Москва, ул. Лобачевского, д. 45 .;с 9.00 до 22.00.
Азия;79859682545;komilov.temurmalik@ya.ru;Москва и область;ул. Золоторожский вал, д. 38, офис 12;с 10.00 до 20.00.
Азия-Ордо;79163974552;azia-ordo@yandex.ru;Москва и область;ул.Братиславская, д.8;с 10.00 до 21.00.
АИС-Т;79164320818;Aistransmsk@gmail.com;Москва и область;;
Айсберг;79266049999;v2390027@yandex.ru;Москва и область;ул. Люблинская, д. 70.;с 10.00 до 20.00.
Акбарс;79671368117;akbars.taxi@ya.ru;Москва и область;г. Москва, ул. Варшавское ш. д. 129, корп. 2, оф. 207;с 08.00 до 22.00.
Акнада;79151700011;Taxi_Moscow@bk.ru;Москва и область;;
Аксима Групп;79136472336;max.khlestunov@gmail.com;Москва и область;;
АКСТЕЛ;79151212266;maks_karpov_94@bk.ru;Москва и область;ул. Артековская, д. 5к1.;с 08.00 до 23.00.
Алатырь;74992880738;rpzakaz@yandex.ru;Москва и область;ул. Строителей,  д. 7.;с 10.00 до 20.00.
Алиас;79691234445;Abramyanat@mail.ru;Москва и область;;
АллоГараж;74999949109;allo.garage.taxi@ya.ru;Москва и область;;
Алые Паруса OZ;79031444410;ssn2806@gmail.com;Москва и область;;
Альбатрос;79255888088;ds300581@yandex.ru;Москва и область;;
Альбатрос;79585623333;Armen1925@yandex.ru;Москва и область;ул. 2-ой Сельскохозяйственный проезд,  д. 6 стр. 5.;с 10.00 до 18.00.
Альфа-Лидер;79653031624;alfa-lider-lead@yandex.ru;Москва и область;ул. Исаковского, д. 33.;с 10.00 до 18.00.
Ами-1;74957670717;arshaktaxi888@yandex.ru;Москва и область;;
АНИРА ТАКСИ;79162755555;gadyan.a@yandex.ru;Москва и область;;
Анналайн;79995169689;angurieva@yandex.ru;Москва и область;;
Арманд;79267431507;armand.taxi@yandex.ru;Москва и область;;
Армэд;74993916578;taxi-armed@yandex.ru;Москва и область;г. Москва, ул. Речников, д. 19, помещение №4-П;с 9.00 до 19.00, Пн-Пт.
АРСИТАКСИ;79267778138;arsitaxi@yandex.ru;Москва и область;ул. Докукина, д. 16к4.;с 9.00 до 21.00.
АСБТ;79779392838;asbtaxi@yandex.ru;Москва и область;;
База190;79670190190;klinlogist1@yandex.ru;Москва и область;;
Бай Шах;79265071515;rinatabyzov@yandex.ru;Москва и область;;
Бизнес-Эталон;79881625820;sermercedes@yandex.ru;Москва и область;;
Бонус;79261043459;bbonus2019@yandex.ru;Москва и область;;
Бриз;74950757488;;Москва и область;ул. Тарный пр-д, д.11.;с 10.00 до 20.00.
БульдогАвто;79774603487;taxidoki@ya.ru;Москва и область;;
БЮЛЛЕР;79255170656;bueller.taxi@yandex.ru;Москва и область;;
Ванин и Партнёры;79160222111;;Москва и область;ул. Ижорская, д.5;с 10.00 до 19.00.
Василёк;79867464172;kuznetcova.82@mail.ru;Москва и область;;
Вега;79257940451;a.syryamin@yandex.ru;Москва и область;;
ВЕКТОР;74957447337;info@vector.taxi;Москва и область;ул. Варшавское шоссе, д.1с1;с 11.00 до 20.00, Пн-Пт.
Вектор-Плюс;79165843183;sabaev@starkkraft.ru;Москва и область;;
Верба;79857734913;taxi.verba@yandex.ru;Москва и область;;
Витакси;79995555535;2561144@mail.ru;Москва и область;ул. Волгоградский пр-кт, д. 93к2.;с 10.00 до 18.00.
Восток;79651782995;Askarov321@gmail.com;Москва и область;ул. Василия Петушкова, д. 3.;с 9.00 до 19.00.
Вт-Такси (Витакси);74952561144;2561144@mail.ru;Москва и область;ул. Волгоградский пр-т, д. 93к2;с 9.00 до 19.00.
Вылет-Плюс;74952953315;I.P.NEKRASOV@yandex.ru;Москва и область;;
Высота;79253279250;Height.taxi@yandex.ru;Москва и область;ул.Первомайская, д. 3А, оф.10;с 10.00 до 16.00, Пн-Пт, с 10.00 до 13.00, Сб-Вс.
ГОРОД;74996782030;gorodtaxi@inbox.ru;Москва и область;ул. Смирновская, д. 19.;с 10.00 до 19.00.
Город 312;79771693045;matisaev64@yandex.ru;Москва и область;;
Городское Троицк;79037900582;7900582@gmail.com;Москва и область;ул. Дмитрия Кабалевского, д. 22.;Круглосуточно.
Гранд-Авто;79263470779;;Москва и область;;
ГУДВЕЙ;79266960044;;Москва и область;ул. Ярославская, д. 8к6.;с 10.00 до 18.00.
ДАКС АЛ;79684515051;Taxi4est@yandex.ru;Москва и область;г. Москва, ул. Марии Поливановой, д. 9, этаж 2, кабинет 1;с 10.00 до 18.00.
Династия;79859777249;and.timonin2018@ya.ru;Москва и область;ул. Средняя Калитниковская, д.28 стр 2;9.00 до 18.00.
Диспетчерская служба такси Спринт;79269242816;sprint-taxi01@mail.ru;Москва и область;;
ДИСЭНТ РЭЙТ;79997684470;decentrate@yandex.ru;Москва и область;ул. 1-й Варшавский проезд, д. 1А стр.30.;с 9.00 до 21.00.
ДоДома;79250734246;bbamo@yandex.ru;Москва и область;;
Долфер;79099504093;demikhow@bk.ru;Москва и область;ул. 23 км Калужского шоссе, д.14с3;с 11.00 до 17.00.
Дом;79262771216;taxi1dom@yandex.ru;Москва и область;ул. 2-ая Карачаровская 1с1.;с 10.00 до 20.00.
Драйв Такси;79652130707;drive.guseynov@yandex.ru;Москва и область;;
ДС Апельсин;79269996836;ruapelsin@gmail.com;Москва и область;;
Душанбинка;79647759840;dushanbinka.taxi@yandex.ru;Москва и область;ул. Верхнелихоборская, д. 11с5.;с 9.00 до 20.00.
ЕВРОПАРТНЕР;79646404753;evropartner1977@bk.ru;Москва и область;;
Евростандарт;74952233323;eurostandart.t@yandex.ru;Москва и область;Москва, ул. Генерала Белобородова 42 стр. 1;с 9.00 до 18.00.
Екатерина;79774719908;sutormina85@mail.ru;Москва и область;;
Желтый Кот;79855060201;Kp.orgs@yandex.ru;Москва и область;;
ЖОРУ;79647718003;toha010884@mail.ru;Москва и область;;
Завидное Такси;79168364646;Info@zavidnoe-taxi.ru;Москва и область;;
Заказы МСК;74997033303;avenu168756@yandex.ru;Москва и область;ул. Старокалужское шоссе, д. 64, стр. 9.;с 9.00 до 18.00.
Извозчикъ;79261074289;;Москва и область;;с 9.00 до 20.00, Пн-Пт, с 10.00 до 18.00, Сб-Вс.
ИП Айнуллина Р.С.;79299083388;;Москва и область;ул. Алтуфьевское шоссе, д. 48к2.;с 10.00 до 18.00 , Пн-Пт.
ИП Акимов Вячеслав Юрьевич;79255076145;Akimov-v@yandex.ru;Москва и область;ул. Крылатская, д. 8.;с 9.00 до 18.00.
ИП Алавердян В А;79103125671;wolf2011a@yandex.ru;Москва и область;;
ИП Ампилова;79168297111;Oleg.amp@yandex.ru;Москва и область;ул. 7-я Кожуховская, д. 5Б;с 10.00 до 18.00.
ИП Артемов;79267157377;ram.taxi555@yandex.ru;Москва и область;;
ИП Асташкин Ярослав Андреевич;79671402109;Astax8@mail.ru;Москва и область;ул. Ивана Франко,  д. 4к16.;с 10.00 до 22.00.
ИП Бекбердиева Наргиза Азатовна;79251717210;yataxi15229737@yandex.ru;Москва и область;;
ИП Беляев А.А.;74959781890;gud@g-e-t.ru;Москва и область;ул. Речников, д. 19,  офис 6.;с 09.00 до 13.00.
ИП Борисов С.А.;79163904373;luxeyou@yandex.ru;Москва и область;;
ИП Буланов Артур Геннадьевич;79017571075;info@avtomotors-taxi.com;Москва и область;г. Москва, ул. Анненский проезд, д. 1, стр. 20;с 10.00 до 18.00, Пн-Вс.
ип варжапетян самвел арташесович;79670608800;Varzhapetyans@yamdex.ru;Москва и область;ул. Рябиновая,  д. 14А.;с 9.00 до 19.00.
ИП Гераськин Сергей Иванович;79639981153;;Москва и область;ул. Бескудниковский бульвар, д. 24к1;
ИП Глоян;79637680871;ubmos@yandex.ru;Москва и область;;
ИП Григорян;79250637224;arutgrigoryan24@mail.ru;Москва и область;;
ИП Дудкин И.П.;79150404045;ildudkin@yandex.ru;Москва и область;;
ИП Дядиченко;79859910837;day72@bk.ru;Москва и область;;
ИП Захарян Г.З.;79100023322;taxisoiuz@yandex.ru;Москва и область;ул. Березовой Рощи пр-д, д.12;с 08.00 до 23.00
ИП Иванова Наталья Леонидовна;79035557537;ivanova-0707@yandex.ru;Москва и область;;
ИП Ивантеев;79856415419;dmiv1965@yandex.ru;Москва и область;ул. Удальцова, д. 36.;с 10.00 до 20.00.
ИП Карапетян Вачаган Грачинович;79057878111;vachag51@yandex.ru;Москва и область;г. Москва, ул. Толбухина, д.9, корп. 1, офис 2;Круглосуточно.
ИП Крупнов Д.А.;79035538666;Jobtaxi@yandex.ru;Москва и область;;
ИП Крюкова Елена Александрова;79998000204;age324@yandex.ru;Москва и область;ул.Рябиновая, д.44, оф. 409;с 10.00 до 19.00
ИП Маджидов;792673883882;mr.bahrombek@mail.ru;Москва и область;;
ИП Мамасыдыков Зарылбек Маликович;79258907083;zarylbek8080@mail.ru;Москва и область;;
ИП Марин ДС;79859580195;taximsc@yandex.ru;Москва и область;ул. Лихоборская набережная, д. 13.;с 9.00 до 18.00.
ИП Мельничук А.Б.;79670256999;ip.andrey.melnichuk@yandex.ru;Москва и область;ул. Рублевское шоссе,  д. 64к2.;с 10.00 до 20.00.
ИП Михайлова А.С.;79999071810;taximihaylova@yandex.ru;Москва и область;;
ИП Мустакимов Р. И.;79067942579;www-raf@yandex.ru;Москва и область;;
ИП Налётова;79255390697;kovcheg1977@yandex.ru;Москва и область;;
ИП Оганесян О.А.;79645399133;;Москва и область;;
ИП Пальцев;79269014048;Mil_0606@mail.ru;Москва и область;ул. Коровинское ш., д. 2А.;
ИП Плугарев Денис;74994901189;tkanareyka@inbox.ru;Москва и область;ул. Новогиреевская, д. 26.;с. 10.00 до 18.00.
ИП Степанян;74959889963;info@pegas-taxi.net;Москва и область;;
ИП Сухарев Павел Петрович;79197611111;84959729211@mail.ru;Москва и область;ул. Вешних вод, д. 4.;с 10.00 до 22.00, Пн-Пт.
ИП Токов Ренат Идрисович;79364440901;rentokov@yandex.ru;Москва и область;;
ИП Хлюстов А.Ф.;79685512345;sasha_job@inbox.ru;Москва и область;ул. Куликовская, д. 5.;Круглосуточно.
ИП Чечётин С.А.;79251984183;sergejaleksandrovich88@yandex.ru;Москва и область;;
ИП Чобанян Давид Мгерович;79175575505;shobanyan@yandex.ru;Москва и область;ул. Нижеская, д. 86Б.;с 10.00 до 22.00.
ИП Шеплякова В.А.;79204349101;avtogaz-msk@yandex.ru;Москва и область;ул. Адмирала Руднева, д.20, офис 711;с 10.00 до 18.00.
ИП Шестопалова;79652355353;Shest0palovao@yandex.ru;Москва и область;;
ип шибко а.а;79680834828;;Москва и область;г. Химки, ул. Рабочая, д. 2а стр 95;с 10.00 до 16.00.
ИП Шишкина Татьяна Анатольевна;79857663597;dmitriii33@yandex.ru;Москва и область;;
ИП Щербаков И.В.;79164552640;;Москва и область;;
КАКТУС;79519110229;rafailizmailovitch@yandex.ru;Москва и область;;
Карабах;79261351365;rbabaev15197741@yandex.ru;Москва и область;;
карат_коломна;79858585518;karat.kolomna@yandex.ru;Москва и область;;
Кармен;79859610809;arm3587@yandex.ru;Москва и область;;
Карсаг;79687884182;saghoyan0101@gmail.com;Москва и область;;
КИНГ-ТАКСИ;79779301523;gul.bahor2017@yandex.ru;Москва и область;;
Коломенское такси;79152021780;Kolomnataxi@yandex.ru;Москва и область;;
Командир-СП;79015447766;blakovkir@gmail.com;Москва и область;;
Комиссар Москва;79251445060;taxi.taxirait@yandex.ru;Москва и область;Москва ул. Каланчевская 32;с 9.00 до 16.00, Пн-Пт.
Комфорт;79162588609;79162588609@yandex.ru;Москва и область;;
Комфорт;74954800883;rsm.aslanyan@gmail.com;Москва и область;ул. Абрамцевская, д. 8.;с 10.00 до 19.00.
КОСМОС-С;79999762468;taxi-cosmos@yandex.ru;Москва и область;;
Кучер;79030049444;ku4er2019@yandex.ru;Москва и область;;
Кarlsonauto;79037131212;;Москва и область;;
Лайк_Такси;7926135024;kozlow.vasily@yandex.ru;Москва и область;;
Лайф-Такси;79257556360;park@indigo-taxi.ru;Москва и область;ул. Щелковское шоссе, д. 100.;
Лебедь;79251417778;cherniy83@bk.ru;Москва и область;ул. Генерала Белобородова, д. 44к5.;с 10.00 до 19.00.
Леки;79224393449;Babaevrinat29@yandex.ru;Москва и область;;
Лидер;79167699305;Arusinov89@yandex.ru;Москва и область;ул.Плеханова, д. 17с11;с 09.00 до 22.00.
Лидер М;79268287403;Borich21@ya.ru;Москва и область;;
Логикер;79258018200;logikernf@yandex.ru;Москва и область;;
Лотта;79151010111;9996855@gmail.com;Москва и область;"ул. Горбунова, д. 12к2с8 
Офис 311";с 9.00  до  21.00.
ЛуИд;79777958158;Bairta.luganko@yandex.ru;Москва и область;ул. Гарибальди, д.36;с 10.00 до 18.00, Пн-Пт.
М-8 Холмогоры;74957601004;tk-svita@yandex.ru;Москва и область;ул. Хибинский проезд, офис 411;с 10.00 до 18.00.
Маджести;79168338783;RusOff58@yandex.ru;Москва и область;ул. Плеханова, д.10.;с 09.00 до 17.00, Пн-Пт.
Макс такси;79252234478;info@taxi-dispetcher.ru;Москва и область;;
Максимус;79635908767;Askerbek0795@mail.ru;Москва и область;;
Макстакси;79858170602;Maxvtaxi@yandex.ru;Москва и область;ул. Джамгаровская, д. 5с1, офис 13.;с 10.00 до 18.00.
Маркет;74955321775;market-msk483546@yandex.ru;Москва и область;ул. Бориса Жигуленкова, д. 25к1.;с 9.00 до 18.00.
Марсель;74959259494;yamarsel18@yandex.ru;Москва и область;г.Москва ул. Барышиха д.39А;с 10.00  до  20.00.
Марта;79199997500;Mart-taxi-18@yandex.ru;Москва и область;ул. Егорьевский проезд, д.3Жс8;с 10.00 до 22.00, Пн-Сб.
МВФ-Трейд;79299878074;cool.extrasmart@yandex.ru;Москва и область;ул. Немчинова, д. 4.;с 10:00 до 19:00, Пн-Пт.
Милена;79253730784;norik2701@gmail.com;Москва и область;;
МИНАВТО;79262346226;andreyaleks80@yandex.ru;Москва и область;ул. Островитянова, д. 4.;с 10.00 до 19.00.
МИНУТКА;79265555614;minutka.taxopark@yandex.ru;Москва и область;;
Мир Такси;78003508332;info@mirtaxi.com;Москва и область;;
Мир Такси;79251529130;mirtaxi77@gmail.com;Москва и область;;
МИР Такси;79994507762;mirtaximsk@yandex.ru;Москва и область;;
Мир-KG;79060866970;Orozaliev.mirbek@yandex.ru;Москва и область;;
МИРАКС;79858452645;taximirax@yandex.ru;Москва и область;ул. Ратная, д. 16, корп. 3.;с 10.00 до 18.00.
Мирят;79017769471;miryat@yandex.ru;Москва и область;;
МИТОС-МТ;79654223161;metosmt@yandex.ru;Москва и область;г. Зеленоград, ул. Алабушевская стр.1;с 10.00 до 18.00, Пн-Пт, с 12.00 до 15.00, Сб-Вс.
МО-такси;74991123335;mo-taxi@yandex.ru;Москва и область;;
МосГосТакси;79778474336;mosgostaxi@mail.ru;Москва и область;г. Москва ул. Автомобильный проезд, д. 4, офис 341;с 10.00 до 19.00.
Москлаб;79671923493;mosklabtaxi@yandex.ru;Москва и область;ул. Сельскохозяйственная, д. 45А.;с 11.00 до 17.00.
Мособлтакси;79653484919;van08@yandex.ru;Москва и область;;
МСК профитгрупп;79037476053;strim.tk@yandex.ru;Москва и область;ул. Волгоградский пр-т,  д.32к13.;с 9.00 до 18.00.
МСК-ФОРТУНА;79857636989;alex4t@mail.ru;Москва и область;Старый Петровско-Разумовский проезд, д. 1/23 корп.4, оф. 301 А;с 11.00 до 20.00.
МТ-Сервис;79852928329;taxi.mtservis@yandex.ru;Москва и область;;
МЭР;79269031337;mer-taxi@yandex.ru;Москва и область;ул. Грина, д. 3к2;с 10.00. до 19.00.
Надежда;79661107107;Taksivsegda@yandex.ru;Москва и область;Балашиха ул.Некрасова 12 оф 101;с 9.00 до 18.00.
НаТакси.Москва;74994990149;nataximoskwa@yandex.ru;Москва и область;;
Нидоран;7967777090;diablez@yandex.ru;Москва и область;ул. Селигерская, д. 18Б.;с 10.00 до 22.00.
Николаева Ю.В.;79160061785;jun-2005@yandex.ru;Москва и область;;
НКТ;79055771177;kakhabernozadze@yandex.ru;Москва и область;;
Нотвин;79251589665;alexei.dvoryankov@yandex.ru;Москва и область;;
Общество Российских Таксистов (ОРТ);79296287668;ben91ben@yandex.ru;Москва и область;;
Огни столицы;79688667726;ogstol@yandex.ru;Москва и область;ул. Волоколамское шоссе, д. 114к2с2;с 9.00 до 19.00, Пн-Пт.
ОЛИМП;79254354675;4354675@gmail.com;Москва и область;;
"ООО ""Авиа-1""";74951964410;aavia-1@yandex.ru;Москва и область;г. Красногорск, ул. Спасская, д. 1кА, 2 этаж;с 10.00 до 19.00.
"ООО ""Вектор""";79675645683;skout3@yandex.ru;Москва и область;ул. Кулаков переулок,  д. 6.;с 9.00 до 18.00.
"ООО ""Джи Ви""";74964636493;jvram@yandex.ru;Москва и область;ул. Рабочая, д. 2,  офис 7;с 10.00 до 18.00.
"ООО ""ДОБРОДЕЛ""";79153711888;9165399000@mail.ru;Москва и область;ул. Александры Монаховой, д.92, к.1.;с 8.00 до 22.00.
"ООО ""Драйв Линк""";74951202355;drive-link@yandex.ru;Москва и область;г. Москва, ул. Палехская, д. 131;с 9.00 до 19.00, Пн-Пт.
"ООО ""Мираж-М""";79013675456;mirazhtaxi@yandex.ru;Москва и область;;
"ООО ""Транскомп""";79645034545;transckomp@yandex.ru;Москва и область;;
"ООО ""Три слова""";74951505891;gk@3slova.com;Москва и область;Бережковская наб., д. 20 стр. 64, офис 78;Круглосуточно.
"ООО ""ФАРТ-КАР""";79671041010;fart-car@yandex.ru;Москва и область;ул. Лихоборская набережная,  д.6.;с 12.00 до 19.00.
ООО «Очаково-Планета»;79165784117;haladova.arbeta@yandex.ru;Москва и область;г. Москва, ул. Наташи Ковшовой д16;с 11.00 до 20.00.
ООО «Первое Такси»;74956419779;info@pervoe.taxi;Москва и область;;
ООО МЕЧТА;79055111001;DreamTax@yandex.ru;Москва и область;ул. Живописная, д. 21к3.;с 8.30 до 16.30.
ООО ПЕРВЫЙ ТАКСОМОТОРНЫЙ ПАРК;79165113330;nogtaksopark@yandex.ru;Москва и область;;
ООО РЕАЛ;74996499845;info@real-taxi.ru;Москва и область;ул. Одесская, д. 6, офис 4.;с 9.00 до 18.00.
Ордо;79267088859;g-m_84@mail.ru;Москва и область;;
Орион;79067777793;valvashev@yandex.ru;Москва и область;;
Открытие М;79162344505;hjuhdnat@mail.ru;Москва и область;ул. Поречная,  д.3к1.;Круглосуточно.
Паритет такси;79260358305;taxi.paritettaxi@yandex.ru;Москва и область;;
парк1788;79252238555;saxony79@yandex.ru;Москва и область;;
Паркин Партнёр;79253000780;info@parkin-partner.ru;Москва и область;;
Партнер Москва;79920291122;partner.taxi@bk.ru;Москва и область;;
ПАРТНЕР+;74991108070;gbstaxi@ya.ru;Москва и область;;
Питон_М;79267678899;taxi.fcity@yandex.ru;Москва и область;;
Платина;79165160334;zvyagintsev-is@yandex.ru;Москва и область;;
Плутос-мск;79266629311;boik.denis193@yandex.ru;Москва и область;ул.Парковая, д.11;с 9.00 до 22.00.
ПОВЕЗЁТ;79013326136;Povezet18@yandex.ru;Москва и область;;
Попутчик;74956644987;hmustafo@yandex.ru;Москва и область;;
Посадский извозчикъ;79999621931;posad.izvoz@yandex.ru;Москва и область;Московская область, город Павловский Посад ул. 1-ая Мишутинская д.76;с 9.00 до 18.00.
ПРАЙМ ПЛЮС;79858005545;y99946977@yandex.ru;Москва и область;ул. Верхнелихоборская, д. 8А.;с 10.00 до 18.00.
Премьер;79251011041;pioneer-mvs@ya.ru;Москва и область;;
Престиж;79263456825;mister.harrison@yandex.ru;Москва и область;;
Престиж;79017162868;k.mahmudova1310@yandex.ru;Москва и область;;
ПРЕСТИЖ +;79093628838;diol-lux@yandex.ru;Москва и область;ул. пр-т Московский, д.7;с 8.00 до 22.00.
Рай Такси;79038444446;info@RayTaxi.ru;Москва и область;;
Регион 799;79254364324;region.799@yandex.ru;Москва и область;ул. Сельскохозяйственная, д.64А.;с 10.00 до 21.00.
Рент;79035307398;taxi-rent@yandex.ru;Москва и область;г.Москва, ул.Потешная, д.6/2 стр.18;с 10.00 до 20.00, Пн-Пт.
РИОНЕЛЬ;79950000804;gory-gena@yandex.ru;Москва и область;ул. Бибиревская, д. 2А.;с 12.00 до 19.00.
Рублевское Такси;79645601441;RUBLEVKA-INFORM@yandex.ru;Москва и область;;
Русский путь;79629622020;kr.taxi@mail.ru;Москва и область;;
РФ 24;79858148957;IP.Tkachyov;Москва и область;;
Сапсан Дубна;79652701752;Sergsergeev78@yandex.ru;Москва и область;;
Сафари;79647088880;Safyanvt@yandex.ru;Москва и область;г. Москва, ул.Толбухина 9 к1 оф5;с 10.00 по 21.00.
СВ-такси;79153123428;sv.taxi77@yandex.ru;Москва и область;;
СЕРВАД;79035518008;Servead@yandex.ru;Москва и область;;
"Сервис-клуб ""Таксист""";74957722858;info@taxist.info;Москва и область;ул. Багратионовский пр-д, д.12А, офис 25;с 10.00 до 19.00.
Сервис-такси;74951011223;servistaxi2016@mail.ru;Москва и область;г. Москва, ул. Кольская, д. 12, стр. 4;с 12.00 до  20.00.
Синкерит Авто;79265630624;sincerit@yandex.ru;Москва и область;;
Системы;74995770097;kashevarovkb@gmail.com;Москва и область;ул. Электролитный пр-д, д. 3Бс6.;с 10.00 до 19.00.
СитиЛайнер;79037458539;citylinertaxi@yandex.ru;Москва и область;ул. Волгоградский пр-т, д.32к8;с 9.00 до 18.00.
СКЦ;79256101227;skc-m@yandex.ru;Москва и область;;
СЛК;79645101716;slk.sokhatskiy@yandex.ru;Москва и область;ул. Удальцова, д.79 стр.2.;с 10.00 до 19.00.
СоВа ТМ;79776327010;nbveif1988@yandex.ru;Москва и область;;
созвездие;79150677565;den.boxs770z@gmail.com;Москва и область;;
СОЛЛЕРТИЯ;74952200104;taxi.sapfir@yandex.ru;Москва и область;ул. Краснобогатырская, д. 2, стр. 16, офис 13 (подъезд №1, этаж 2).;с 10.00 до 19.00.
СП Такси;79268283599;y.sergeev@egsp.ru;Москва и область;;
Стабильность;79104807145;valerkajee@mail.ru;Москва и область;;
Стайл Сити;79267192214;andranikavakyan@yandex.ru;Москва и область;ул. Лихачевский пр-т, д. 44;Круглосуточно.
старкар;79151275538;v4ll.werhot89@yandex.ru;Москва и область;;
СТАТУС;79296827742;info@statustaxi.ru;Москва и область;ул. Симоновский Вал, д. 9;с 10.00 до 18.00.
Стек;79154018121;stek-taxi@mail.ru;Москва и область;ул. Ленинградский пр-кт, д. 63, оф.35;
Столица Такси;79381008810;capital.taxi24@yandex.ru;Москва и область;;
Столичная ассоциация таксистов (САТ);74950664632;start@stolastaxi.com;Москва и область;;
Стриж Такси;74957225979;strizh-taxi@mail.ru;Москва и область;ул. Борисовские Пруды, д.1 стр.1.;с 10.00 до 18.00.
СуперТакси;79688880110;taxiset888@yandex.ru;Москва и область;;
СЭМ;79169540678;gasparyangay2312@yandex.ru;Москва и область;;
Т+;79649838685;Molotpark@yandex.ru;Москва и область;;
Таксёрофф;79255558080;Taxyoroff@yandex.ru;Москва и область;ул. Мусы Джалиля, д.31к2;с 9.00 до 22.00.
ТАКСИ 777;79197700706;82alexander82@mail.ru;Москва и область;ул. Козлова, д. 30, офис 4.;
Такси Асити;79255899499;taxi.rodtaxi@yandex.ru;Москва и область;;
Такси ВЕК;79250067171;taxiveka@gmail.com;Москва и область;;
Такси Восток;79772617325;Taxivostok1@yandex.ru;Москва и область;;
Такси Золотой;79688585986;Erkin.ip85@mail.ru;Москва и область;;
Такси Посад;79259274899;gersog1@gmail.com;Москва и область;;
Такси Тренд;79652205777;nazimchik_85@inbox.ru;Москва и область;ул. 3-й Новомихалковский пр-д,  д.3;с 9.30 до 18.00, Пн-Сб.
Такси ХИЩНИК;79778957008;vadimmuzlanov@yandex.ru;Москва и область;ул. Березовая аллея, д. 12А.;с 11.00 до 21.00, Пн-Пт, с 12.00 до 16.00, Сб-Вс.
Такси Black;79670770776;smirnastas@gmail.com;Москва и область;;
Такси №1;79777564175;tolvel1987@yandex.ru;Москва и область;;
Такси-Взлет;79653888333;velimetov87@mail.ru;Москва и область;ул. Дмитровское ш-е, д. 102к2.;с 10.00 до 20.00.
Такси-Ко.;79685319303;zakaz@taxi-co.ru;Москва и область;ул. 3-й Угрешский пр-д, д. 8А, стр. 5.;с 9.00 до 17.00, Пн-Сб.
Такси-Лидер;79775245200;taxi-lider.ru@yandex.ru;Москва и область;ул. Варшавское шоссе,  д. 170Б стр. 2,  офис 16.;с 9.00 до 17.00.
Такси-Москва.РФ;79857242424;;Москва и область;;
Таксик;79030007734;taxik24@yandex.ru;Москва и область;;
ТаксиОптима;74959992588;Taxi9992588@yandex.ru;Москва и область;;
Таксиправда;79032202333;taxipravda@yandex.ru;Москва и область;;
ТакСити Бизнес;79262881875;E89654321999@yandex.ru;Москва и область;;
Таксопарк;79099032767;igor.2410@yandex.ru;Москва и область;;
Таксопарк Серенити;74993945038;serenity-taxi@yandex.ru;Москва и область;ул. Федеративный проспект, д.9к2, подъезд 3, оф 3;с 10.00 до 20.00.
ТатЭлит;79160974030;fragrance1990@yandex.ru;Москва и область;ул.Воронежская, д.13, к.2;с 10.00 до 20.00.
Твой Город;79779780839;gorodtvoi@yandex.ru;Москва и область;ул. Рябиновая, д. 69с5.;с 9.00 до 17.00.
Тиньков МСК;79671129743;tinkovaleksandr@yandex.ru;Москва и область;;
ТК Гросс;79032495842;persona@tkgross.ru;Москва и область;ул. Варшавское шоссе,  д. 141c80.;с 9.00 до 18.00, Пн-Пт.
ТК Звезда;79852850330;taxi-zvezda77@yandex.ru;Москва и область;ул. Клязьминская, д. 11к4;с 10.00 до 19.00.
ТК Кредо-Альянс;79254983238;credal@yandex.ru;Москва и область;;
ТК Премьер;79104993118;tk-premier.taxi@yandex.ru;Москва и область;ул. 3-й Нижнелихоборский пр-д, д. 1А;с 09.00 до 19.00, Пн-Пт, с 9.00 до 18.00, Сб.
ТК ПРЕСНЯ;79260905777;taxi.oootkpresnya@yandex.ru;Москва и область;;
ТК-ТАКСИ;79168874953;taxievastupino@yandex.ru;Москва и область;;
транзит24;79265722857;homutskiiserega@mail.ru;Москва и область;ул. Колыберевская, д. 16.;с 10.00  до 17.00.
Транскоин-М;79263973725;transkoin-m@yandex.ru;Москва и область;;
Транспортная логистика Т+;74951506959;dispatcher2019@yandex.ru;Москва и область;ул. Средняя Калитниковская, д.28, стр.2.;с 9.00 до 18.00.
Транспортное Объединение;79169299929;mob1975@ya.ru;Москва и область;;
Тренд 2;79850383303;norov.saidali@yandex.ru;Москва и область;ул. 3-й новомихалковский пр-д,  д.3;с 9.30 до 18.00, Пн-Сб.
Триумф;79264147366;triumf1313@yandex.ru;Москва и область;;
Троица;79164715387;Antondashuk@yandex.ru;Москва и область;;
Тройка-Зеленоград;74993477177;;Москва и область;;
Тройка-Тверь;79680730132;;Москва и область;;
Урарту;79032399911;Ang23021995@yandex.ru;Москва и область;ул. Перерва, д. 21Ас1.;с 8.00 до 22.00.
Успех;79653374949;taxisuccess@yandex.ru;Москва и область;;
УютЛенд;79296422021;yutlend@yandex.ru;Москва и область;;
Факел;79629553434;fakel.taxi@yandex.ru;Москва и область;ул. Варшавское шоссе,  д.17.;с 10.00 до 19.00.
Флай;79032622288;fly2016t@bk.ru;Москва и область;ул. 3-й Угрешский пр-д, д. 8А стр. 3.;
Флэш;79253564828;flashtaxi.rf@yandex.ru;Москва и область;Москва, ул.Льва Яшина, д.7;с 8.00 до 21.00.
Фобос;79998455440;dalas5@yandex.ru;Москва и область;ул. Профсоюзная, д. 127Б, оф.209.;с 10.00 до 22.00.
Формула 77;79262421305;formula77-msk@yandex.ru;Москва и область;ул. Минская, д. 1М.;с 9.00 до 18.00.
Форсаж;79307905287;acmatalievr@yandex.ru;Москва и область;;
Фортуна;79254449122;;Москва и область;;
Фортуна;79777283198;taxi1fortuna@yandex.ru;Москва и область;;
ФТАКСИ;74996775887;gett@force.taxi;Москва и область;;
хоттабыч_раменское;79299221974;maptaxi@mail.ru;Москва и область;;
Цезарь;79162041047;director@taxi-caesar.ru;Москва и область;ул. Рязанский пр-кт, д. 10с2, оф.501.;с 11.00 - 19.00, Пн-Пт.
Чистый город 2;79670665354;mr.gkstk@yandex.ru;Москва и область;ул. Сталеваров, д. 7;с 10.00 до 18.00.
ШАРМ+;79039617242;irina.baboy. kovalenko@yandex.ru;Москва и область;;
ШАШКА МСК;79646425632;vmysenko@yandex.ru;Москва и область;;
Шёлковый путь;79266624334;naimaka85@mail.ru;Москва и область;ул. Черноморский б-р,  д. 4.;с 9.00 до 18.00.
Шустрик;7960273712;boikovalili@yandex.ru;Москва и область;;
Эва Авто;79884758000;Abvazgen-1991@yandex.ru;Москва и область;;
Экипаж;79264681768;torg-44@yandex.ru;Москва и область;ул. Седьмая Лазенки, д. 14с1;с 11.00  до 18.00.
Элиза;79661233373;taxiEliza@yandex.ru;Москва и область;;
ЭльКар;79260107075;Ekaterina.elkar@yandex.ru;Москва и область;;
ЭТАЛОН АВТО;79651355557;etalonauto18@yandex.ru;Москва и область;ул. Очаковское шоссе, д. 3А.;с 11.00 до 18.00.
ЭТО Я Такси;79660960000;Y.Taxi@Yandex.ru;Москва и область;ул. Кулаков переулок,  д.6.;с 08.00 до 20.00.
Ю-Транс;79296847824;6847824@mail.ru;Москва и область;ул. 1-я Рейсовая, д. 6.;с 11.00 до 19.00, Пн-Пт.
Ю.С.ГРУПП;79259189320;7607797@mail.ru;Москва и область;ул. Киевская,  д. 14, стр. 1.;с 10.00 до 18.00.
Я-Таксист;74994990772;info@ya-taxist.ru;Москва и область;;с 9.00 до 20.00.
A-ДМС;79100889000;;Москва и область;;
AhDi-19;7916222207;uchii2008@yandex.ru;Москва и область;ул. Молодогвардейская, д. 54 стр. 2.;с 11.00 до 17.00.
AleхPark;74994084887;sevojan81@mail.ru;Москва и область;;
ALEX TAXI;79652255500;Aleko84af@yandex.ru;Москва и область;;
ART-TAXI;79853333369;art-taxi.taxi@yandex.ru;Москва и область;ул.Недорубова, д.3;с 12.30 до 16.00, Пн-Пт.
As Taxi;79280042404;AsTaxi95@ya.ru;Москва и область;;
Belka.Taxi;74952012581;cabmans.ru@yandex.ru;Москва и область;;
Bibi24;79013651368;taxibibi24@yandex.ru;Москва и область;;
Bir bol;79268786250;urmat-billionare@mail.ru;Москва и область;ул. Академика Анохина д. 38 корпус 2, помещение 4.;с 9.00 до 21.00.
Black Car;79035338048;;Москва и область;ул. Хибинский пр-д, д. 20, офис 100.;с 10.00 до 18.00, Пн-Пт.
Boston;79259315533;Boston.dis@yandex.ru;Москва и область;;
CAPITAN МСК;79761797170;natali.alimova.69@yandex.ru;Москва и область;;
cashcar2000;79035503210;street-line2000@yandex.ru;Москва и область;ул. Ленинский пр-кт,  д. 23А.;с 10.00 до 17.30.
CityCab;79530676661;cheshuinva@gmail.com;Москва и область;;
DI мск;79154466110;dinamikagroup@mail.ru;Москва и область;ул. Кутузовский проспект, д. 12;с 10.00 до 20.00.
Drivers;79268201544;business.rabbi@yandex.ru;Москва и область;3-ий Нижнелихоборский проезд, д.1А;с 12.00 до 20.00.
Fortuna;79251818766;;Москва и область;ул. Коровинское шоссе, д.46/1;с 10.00 до 19.00.
FOX;79262629742;taxi-ruza@yandex.ru;Москва и область;;
Fox-Речной;79850079067;o.b.9163212017@yandex.ru;Москва и область;Г. Москва, ул. Лавочкина д. 23 стр. 3 оф. 21;с 10.00 до 21.00, Пн-Сб, с 12.30 до 21.00, Вс.
FOX+;79156718903;ale.korschunov@yandex.ru;Москва и область;г. Москва, ул. Лавочкина, д. 23, стр 3, оф. 21;с 9.00 до 21.00.
GEE-taxi;79258352199;1149903@mail.ru;Москва и область;;
GM TAXI;79773299614;Ilyazubarev@mail.ru;Москва и область;;
grektaxi;79999107457;viy757@gmail.com;Москва и область;ул. Одесская,  д. 2.;с 10.00 до 21.00.
GTA09;79692700077;rustam2333rus@yandex.ru;Москва и область;;
GZ_AUTO;79269269898;gz-auto1@yandex.ru;Москва и область;ул. Лобачика,  д. 11.;с 11.00 до 19.00, Пн-Пт.
integra;79775294172;integra.popov84igor@yandex.ru;Москва и область;ул. Нижеская, д. 29/33.;с 9.00 до 22.00.
IRBIS;79636323231;niko-shafranov@yandex.ru;Москва и область;ул. Лобачика, д. 11;
itravelpartner;79250349526;;Москва и область;;
KGpark;79685852261;Kubat.osh@yandex.ru;Москва и область;;
LATAM;74951064870;ipgalik@gmail.com;Москва и область;г.Москва, ул.Ярославская, д.15 к.3;с 10.00 до  до 19.30, Пн-Сб.
Leader.kG;79257352520;orozbaieva@inbox.ru;Москва и область;;
LIBERTY;79162932203;tofikazer@yandex.ru;Москва и область;ул. Перерва, д. 19с1, офис 18.;
LigaTrans;79851131224;Qwert797922@yandex.ru;Москва и область;ул. Михайловка, д. 1420;10.00 до 20.00.
Lika;79663508353;Likataxi@yandex.ru;Москва и область;;
Max-taxi;78002224451;vadov.m@yandex.ru;Москва и область;;
MCK DIOR;79254777758;dior.direct@yandex.ru;Москва и область;г Москва, ул. Зои и Александра Космодемьянских , д. 30\32к1;с 10.00 до18.00.
Mega taxi;79160177770;mega-taxi-18@yandex.ru;Москва и область;Егорьевский пр-д, д. 3Жс6, кабинет 103;с 11. 00 до 21.00, Пн-Пт.
migtaxi;79254483674;migtaximos@yandex.ru;Москва и область;;
MIOSERVICE;79260071331;vimsto@yandex.ru;Москва и область;;
Mobidik Taxi;74993720611;delfin827442@yandex.ru;Москва и область;;
MOSTAXI;79264811517;;Москва и область;;
mskTransfer;79689230777;xasievs@yandex.ru;Москва и область;;
MULTI CAB;79299333321;multicab@yandex.ru;Москва и область;;
MyCity;79775620242;MyCityTaxi@yandex.ru;Москва и область;Москва ул.Путейская 21;с 9.00 до 20.00.
Nara taxi;79253481648;taxi.temnov@yandex.ru;Москва и область;;
NEXT-3;78006002440;trans.avto.2017@yandex.ru;Москва и область;ул. Тюменский пр-д, д. 5.;с 9.00 до 19.30, Пн-Пт, с 10.00 до 17.30, Сб-Вс.
NFS-TAXI;79166925777;Nfstaxi@yandex.ru;Москва и область;;
Obltaxi;79775441974;obltaxi1@yandex.ru;Москва и область;;
Online;79152122111;online.transport-msk@yandex.ru;Москва и область;ул. Космонавта Волкова, д. 13к1.;с 10.00 до 18.30.
Ride Comfort;79015354151;kravchuk.aleksan@inbox.ru;Москва и область;г.Москва ,ул.Беломорская ,д.40,офис 7;с 09.30 до 19.00.
ROXE-такси;79998001069;info@roxe-taxi.ru;Москва и область;ул. 1-я хорошевская, д. 18к1.;с 9.00 до 24.00.
ROYAL-M-TAXI;79858866645;dzamil.salihoff@yandex.ru;Москва и область;Ул. Митрофанова  5;с 9.00 до 20.00.
ScanDOC;79295635655;GalinaAsom@yandex.ru;Москва и область;;
Sintaxis;74993919049;support@sintaxis.ru;Москва и область;ул. Оный пр-д, д. 14.;с 9.00 до 21.00, Пн-Пт.
Smart24;79773660315;smarttaxi24@yandex.ru;Москва и область;;
SOMON;79269661173;admin@somon.taxi;Москва и область;;
StarCar;79295067777;chechen-aul95@yandex.ru;Москва и область;ул. Лихачевский пр-д, д.3;с 8.00.до 1:00.
STAS;79672896285;tax3636@yandex.ru;Москва и область;ул. Мельникова, д. 5.;Круглосуточно.
TAKSIOK;79686779404;bymiks@yandex.ru;Москва и область;;
Taxcompany;79267777769;taxcompany@yandex.ru;Москва и область;г. Москва , ул. Южнопортовая , д. 28а, стр. 17;с 10.00 до 20.00, Пн-Пт.
Taxi Driver;79250605028;rustam432@yandex.ru;Москва и область;г. Москва, ул. Смольная, дом 24, офис 804;с 12.00 до 18.00, Пн-Пт.
Taxi Help;74957443434;;Москва и область;ул. Киевская, д. 14.;с 9.00 до 18.00.
TAXI LAIT;79771396361;taxi.lait.msk@yandex.ru;Москва и область;ул. Академика Королёва, д.28, к.2;
Taxi № 1;74952950080;TAKCOMAT@yandex.ru;Москва и область;ул. Горбунова, д. 3с2;с 9.00 до 18.00.
Taxi OZ;79653570211;oz-taxi@yandex.ru;Москва и область;;
taxi-maestro;79253550907;Taxi-maestro.ry@yandex.ru;Москва и область;;
Taxi2412;79152071383;Gayk-arsenyan1989@yandex.ru;Москва и область;;
Taxify;79151440125;anar.anar.g2009@yandex.com;Москва и область;ул. Каширское ш-е, д. 66к2.;с 10.00 до 19.00.
Taxikolomna2018;79854157275;taxikolomna2018@yandex.ru;Москва и область;;
taximo360;79268758199;120280-12@mail.ru;Москва и область;;
Taxity;79950000108;taxity2018@yandex.ru;Москва и область;;
TaxTransPort;79689510151;enk@taxtransport.ru;Москва и область;ул. Перовское шоссе,  д.21 стр.22.;с 10.00 до 19.00.
TD_Qiwi;79250605028;rustam432@yandex.ru;Москва и область;ул. Смольная, д.24, офис 804.;с 12.00 до 18.00, Пн-Пт.
Time;79686166366;ek.kosenko@yandex.ru;Москва и область;;
two brothers;79775074700;info@2bro.taxi;Москва и область;;
Unit-taxi;79092260586;artem.belskiy@yandex.ru;Москва и область;;
VaiTaxi;79859990304;specavtotrade77@gmail.ru;Москва и область;ул. Шарикоподшипниковская, д. 11/7.;с 09.00 до 18.00.
Vebtaxi;79664444199;vebtaxi@yandex.ru;Москва и область;;
Vit-taxi;79771177125;vitaxi.vit@yandex.ru;Москва и область;;
Zubkova-Company;79037647858;79037647858@yandex.ru;Москва и область;ул.Южнопортовая, д. 28Ас18;с 10.00 до 19.00, Пн-Пт, с 11.00 до 18.00, Сб-Вс.
Татьяна 2018;;;Москва и область;;
ШАХМАТ  Group;;;Москва и область;;
СССР Такси;;;Москва и область;;
Форсаж-М;;;Москва и область;;
Родное такси +;;;Москва и область;;
"ООО ""Федеральное такси""";;;Москва и область;;
Number ONE TAXI;;;Москва и область;;
Taxi499;;;Москва и область;;
Ситилайн МСК;;;Москва и область;;
Raiff Воронеж;;;Москва и область;;
GOLD 1;;;Москва и область;;
ЕДУ;;;Москва и область;;
А Такси;;;Москва и область;;
Алтын;;;Москва и область;;
ТАВР_Тульская;;;Москва и область;;
ЕвроСтандарт Плюс;;;Москва и область;;
Центр поддержки и развития такси;;;Москва и область;;
Мурас;;;Москва и область;;
MosTaxi 40RUS;;;Москва и область;;
Green-taxi;;;Москва и область;;
Аксима Групп;;;Москва и область;;
Департамент такси;;;Москва и область;;
Алладин;;;Москва и область;;
МосАвтоТакси;;;Москва и область;;
Техно-Сервис;;;Москва и область;;
Ангел Такси;;;Москва и область;;
Султан;;;Москва и область;;
ТК-Витязь;;;Москва и область;;
НУР;;;Москва и область;;
ИП Моисеева;;;Москва и область;;
Автопартнер;;;Москва и область;;
Mos;;;Москва и область;;
Просто парк;;;Москва и область;;
Taxi-club24 connect;;;Москва и область;;
Лидер-Авто;;;Москва и область;;
Макс;;;Москва и область;;
СТК Единство+;;;Москва и область;;
Алмаз;;;Москва и область;;
БРР;;;Москва и область;;
АЛКА;;;Москва и область;;
Лидер;;;Москва и область;;
VIPTAXI;;;Москва и область;;
Автолайн;;;Москва и область;;
Чемпион;;;Москва и область;;
Глобус 2;;;Москва и область;;
ЯМосква;;;Москва и область;;
КейАвтоТранс;;;Москва и область;;
Якорь;;;Москва и область;;
Траст-СТ;;;Москва и область;;
Райдер;;;Москва и область;;
MAXtaxi;;;Москва и область;;
ИП Белкин;;;Москва и область;;
"ООО ""Любимый город""";;;Москва и область;;
MosRitmTaxi;;;Москва и область;;
ТЛК;;;Москва и область;;
Букет-627;;;Москва и область;;
АВТОБЭСТ;;;Москва и область;;
Союз;;;Москва и область;;
Миртакси Моментум;;;Москва и область;;
New York;;;Москва и область;;
RTS TAXI;;;Москва и область;;
bombaplus;;;Москва и область;;
ТБК;;;Москва и область;;
Три Dесятки;;;Москва и область;;
Новое Богородское;;;Москва и область;;
Якутия;;;Москва и область;;
Ситиком;;;Москва и область;;
"ООО ""Э.М.Е.""";;;Москва и область;;
Лидер;;;Москва и область;;
ИП Шлыков;;;Москва и область;;
СИТИ;;;Москва и область;;
Vkustaxi;;;Москва и область;;
Профи;;;Москва и область;;
Экипаж;;;Москва и область;;
OmegaTrans;;;Москва и область;;
DRIVER;;;Москва и область;;
Регион 77;;;Москва и область;;
Рубин;;;Москва и область;;
Голд;;;Москва и область;;
Виктория;;;Москва и область;;
Время-Клин;;;Москва и область;;
Береке;;;Москва и область;;
Taxi777;;;Москва и область;;
Звёздный;;;Москва и область;;
"ООО ""Сервис-Снабжение""";;;Москва и область;;
Стимул плюс;;;Москва и область;;
Транссервис;;;Москва и область;;
Траст Партнер;;;Москва и область;;
han-taksi;;;Москва и область;;
MeridianMSK;;;Москва и область;;
ПатриотТакси;;;Москва и область;;
"ООО ""ТК КАМП""";;;Москва и область;;
Салют;;;Москва и область;;
dc-taxi;;;Москва и область;;
Алмазная Колесница;;;Москва и область;;
Победа;;;Москва и область;;
Харкана;;;Москва и область;;
Удача;;;Москва и область;;
Эмирхан;;;Москва и область;;
Ангел01;;;Москва и область;;
JobTaxi;;;Москва и область;;
"ООО ""Такси-Лайт""";;;Москва и область;;
Зеленый Свет;;;Москва и область;;
Парк победы;;;Москва и область;;
Бизнес Авто;;;Москва и область;;
ARM-CITY-M;;;Москва и область;;
РусАвто;;;Москва и область;;
ТАВР;;;Москва и область;;
Эксклюзив+м;;;Москва и область;;
ИП Рогов;;;Москва и область;;
EXPERT PARK;;;Москва и область;;
Рост-а;;;Москва и область;;
"ООО ""Парус""";;;Москва и область;;
ЛоялТакси;;;Москва и область;;
Евро-транс;;;Москва и область;;
Бульдог 2;;;Москва и область;;
Корона №1;;;Москва и область;;
dubai;;;Москва и область;;
ЭльГрант;;;Москва и область;;
JORGO M;;;Москва и область;;
ИП Казбаев;;;Москва и область;;
"ООО ""Наши Улицы """;;;Москва и область;;
"ООО ""Ворлд Такси""";;;Москва и область;;
Караван;;;Москва и область;;
KGZ;;;Москва и область;;
Куб;;;Москва и область;;
almaxтакси;;;Москва и область;;
DUNHILL;;;Москва и область;;
Yellow Motors;;;Москва и область;;
Удача;;;Москва и область;;
Спарта;;;Москва и область;;
Азимут;;;Москва и область;;
Амир;;;Москва и область;;
Каширский;;;Москва и область;;
КомфорТакси;;;Москва и область;;
НФ Москва;;;Москва и область;;
Такси-Верона;;;Москва и область;;
Страйк такси плюс;;;Москва и область;;
ИП Багдасарян Э.Э.;;;Москва и область;;
Такси №8 моментум;;;Москва и область;;
KHUJANDCITY;;;Москва и область;;
Initium;;;Москва и область;;
Диспетчерская Служба Такси;;;Москва и область;;
Турбо Такси Димитр;;;Москва и область;;
Такси Золотой;;;Москва и область;;
KG Улан;;;Москва и область;;
Паскаль;;;Москва и область;;
ООО Мередиан;;;Москва и область;;
ТаксиТакса;;;Москва и область;;
ИП Захария Василиса;;;Москва и область;;
Аккула;;;Москва и область;;
ИП Карагезян Айрапет Аршалуйсович;;;Москва и область;;
Ректурпро;;;Москва и область;;
I-taxi;;;Москва и область;;
Центр Мотор Сервис;;;Москва и область;;
INMAR;;;Москва и область;;
Lion;;;Москва и область;;
Акжол;;;Москва и область;;
A-Klass;;;Москва и область;;
МЕГА-ТАКСИ;;;Москва и область;;
Драйвер;;;Москва и область;;
Смайл;;;Москва и область;;
Роллер;;;Москва и область;;
Asia-Plus;;;Москва и область;;
Форсаж;;;Москва и область;;
КСВ-Такси;;;Москва и область;;
Евромобил;;;Москва и область;;
КошельОК;;;Москва и область;;
ИП Шагинян Б. Н.;;;Москва и область;;
Мир;;;Москва и область;;
Резидент Такси;;;Москва и область;;
СКИФ-Моментум;;;Москва и область;;
Саноян плюс;;;Москва и область;;
СКЦ-2;;;Москва и область;;
Молния;;;Москва и область;;
Азия;;;Москва и область;;
Асала;;;Москва и область;;
Такси MERSSI;;;Москва и область;;
SVR_Krasnova;;;Москва и область;;
Хищник;;;Москва и область;;
Регион;;;Москва и область;;
Шмель;;;Москва и область;;
Честное такси;;;Москва и область;;
КG;;;Москва и область;;
ASG;;;Москва и область;;
Мир;;;Москва и область;;
Крепость;;;Москва и область;;
Консалт Моментум;;;Москва и область;;
ООО Регион 777;;;Москва и область;;
FAST;;;Москва и область;;
SA-BR;;;Москва и область;;
Звёздный;;;Москва и область;;
Taxi181;;;Москва и область;;
Иверия;;;Москва и область;;
Адмирал Такси;;;Москва и область;;
Платина М2;;;Москва и область;;
Фартуна;;;Москва и область;;
МК такси;;;Москва и область;;
ТЭК;;;Москва и область;;
Ариана;;;Москва и область;;
Сигма-05;;;Москва и область;;
Сила-1;;;Москва и область;;
Панда Такси;;;Москва и область;;
ПАРТНЕР МСК;;;Москва и область;;
ИП Лебедев Сергей Александрович;;;Москва и область;;
Такси Фикс;;;Москва и область;;
Три белых коня;;;Москва и область;;
Like;;;Москва и область;;
Агент 020;;;Москва и область;;
Басов Дмитрий Игоревич;;;Москва и область;;
Центр;;;Москва и область;;
Формула такси;;;Москва и область;;
Мустанг;;;Москва и область;;
KebatoRu;;;Москва и область;;
Попутчик;;;Москва и область;;
Экспресс егорьевск;;;Москва и область;;
Просто Такси;;;Москва и область;;
АВТОСОЮЗ-ТРИУМФ;;;Москва и область;;
Гепард МСК;;;Москва и область;;
Эксклюзив+;;;Москва и область;;
Vic_bay;;;Москва и область;;
GetNewCar;;;Москва и область;;
АКТВ1-М;;;Москва и область;;
Prime.;;;Москва и область;;
Imperial;;;Москва и область;;
GAD;;;Москва и область;;
БизнесАвто;;;Москва и область;;
Bereket.KG7;;;Москва и область;;
АВТОСОЮЗ-СКАЙ;;;Москва и область;;
Таксолёт;;;Москва и область;;
Холдинг Авто;;;Москва и область;;
ЫРЫС АЛДЫ ЫНТЫМАК;;;Москва и область;;
Главное Такси;;;Москва и область;;
Продвижение;;;Москва и область;;
Московские Крылья;;;Москва и область;;
Городское Такси;;;Москва и область;;
Такси ТТ;;;Москва и область;;
ТаксиАлекс;;;Москва и область;;
ИП Ханчалян Эдгар Овсепович;;;Москва и область;;
Джаз;;;Москва и область;;
ТК-Лидер;;;Москва и область;;
МУРАС №2;;;Москва и область;;
Эконом парк;;;Москва и область;;
Jokertaxi;;;Москва и область;;
Зарафшан;;;Москва и область;;
Я-ЗЕЛЕНОГРАД;;;Москва и область;;
Megapolis;;;Москва и область;;
Союз;;;Москва и область;;
Высота;;;Москва и область;;
Ракета;;;Москва и область;;
М. Роял-Моторс;;;Москва и область;;
Мустанг;;;Москва и область;;
Лидер-М;;;Москва и область;;
Кью Такси Электродная;;;Москва и область;;
РИТМ;;;Москва и область;;
DallasTaxi;;;Москва и область;;
АрмадА;;;Москва и область;;
Двин;;;Москва и область;;
Вертикаль-А;;;Москва и область;;
ИП Некрасова Т.А.;;;Москва и область;;
ИП Осипов Н.Ф.;;;Москва и область;;
ТРИ ТЭ;;;Москва и область;;
veb17;;;Москва и область;;
МоёTaxi;;;Москва и область;;
ТАВР_Викторенко;;;Москва и область;;
АПЕКС;;;Москва и область;;
juice;;;Москва и область;;
ИП Чиченева Екатерина Сергеевна;;;Москва и область;;
ПП Каскад-1;;;Москва и область;;
ТаксиВнуково;;;Москва и область;;
taxiline;;;Москва и область;;
inTaxis;;;Москва и область;;
Арт-сити;;;Москва и область;;
ТК-Лидер;;;Москва и область;;
Такси Тред -;;;Москва и область;;
МерсТакси;;;Москва и область;;
Т-12;;;Москва и область;;
Мир такси;;;Москва и область;;
Ёмобил;;;Москва и область;;
CARAT;;;Москва и область;;
МММ;;;Москва и область;;
МИГ;;;Москва и область;;
Огни Столицы;;;Москва и область;;
Глобус4;;;Москва и область;;
Антарес 2;;;Москва и область;;
Арт-сити;;;Москва и область;;
Royal taxi;;;Москва и область;;
Spartan;;;Москва и область;;
АВЛ-авто2;;;Москва и область;;
Миг Авто;;;Москва и область;;
Alians77RUS;;;Москва и область;;
ТК Драйв;;;Москва и область;;
М - тех такси;;;Москва и область;;
Автопрофи;;;Москва и область;;
GRAINTAXI;;;Москва и область;;
ITravel;;;Москва и область;;
ОШ Моментум;;;Москва и область;;
ИП Федусь А.А. (МСК);;;Москва и область;;
НИКА - АВТО;;;Москва и область;;
Престиж;;;Москва и область;;
Регион 777;;;Москва и область;;
ИП Гришаева Надежда Сергеевна;;;Москва и область;;
эволайф;;;Москва и область;;
ИП Клишин Сергей Александрович;;;Москва и область;;
Аналайнлюкс;;;Москва и область;;
АВАНГАРД-МОМЕНТУМ;;;Москва и область;;
ООО ЛЮКС;;;Москва и область;;
Эгоист;;;Москва и область;;
Вулкан.Моментум;;;Москва и область;;
ФАРТА;;;Москва и область;;
Умма Такси;;;Москва и область;;
ТаксиЛэнд;;;Москва и область;;
Ectaxi_ru;;;Москва и область;;
ТК «Т-134»;;;Москва и область;;
БИОТРОНИК;;;Москва и область;;
Манготакси;;;Москва и область;;
ИП Геворкян;;;Москва и область;;
ArmPlus;;;Москва и область;;
ДУХОВ;;;Москва и область;;
Стрела;;;Москва и область;;
ИП Стадников Н. Ю.;;;Москва и область;;
Ракета 2;;;Москва и область;;
Алсар;;;Москва и область;;
20-й Таксомоторный парк;;;Москва и область;;
Olimp M;;;Москва и область;;
БИЗНЕС РЕШЕНИЯ АВТО;;;Москва и область;;
SmiLe Taxi;;;Москва и область;;
Такси 2Д;;;Москва и область;;
ИП Один К.В.;;;Москва и область;;
МТА;;;Москва и область;;
Туманян Артур Размикович;;;Москва и область;;
ТАКСИ-ЭКСПРЕС;;;Москва и область;;
kano_мск;;;Москва и область;;
KARAYAZ;;;Москва и область;;
Милана;;;Москва и область;;
Смирновская;;;Москва и область;;
Джиэль Оверсайз;;;Москва и область;;
"ООО ""Автосити""";;;Москва и область;;
Лидер;;;Москва и область;;
ArmElitTaxi;;;Москва и область;;
ТЕХО;;;Москва и область;;
Шаттл;;;Москва и область;;
ПЕГАС ТАКСИ;;;Москва и область;;
Medva;;;Москва и область;;
Такси 0011;;;Москва и область;;
T.DUXOV;;;Москва и область;;
Савва;;;Москва и область;;
ЭЛИТПЛЮС;;;Москва и область;;
АвикаМ;;;Москва и область;;
Кристалл;;;Москва и область;;
Авто-лидер;;;Москва и область;;
ИХЛАС-2;;;Москва и область;;
Фортуна-моментум;;;Москва и область;;
Автолайн;;;Москва и область;;
АВТОСОЮЗ-ПОБЕДА;;;Москва и область;;
Best taxi M;;;Москва и область;;
Маркет;;;Москва и область;;
Эсхата;;;Москва и область;;
ИП ЛАПШИН МАКСИМ;;;Москва и область;;
GRAND;;;Москва и область;;
М.ТАКСИ КОММУНИКАЦИИ;;;Москва и область;;
ЭЛИТА;;;Москва и область;;
Авангард;;;Москва и область;;
Ильменка;;;Москва и область;;
Конкордо;;;Москва и область;;
Маршрут;;;Москва и область;;
ООО АДМ Холдинг;;;Москва и область;;
Gwheels mos;;;Москва и область;;
AVANGARD MSK;;;Москва и область;;
Я и Я Такси;;;Москва и область;;
АВТИМРУС;;;Москва и область;;
Фаворит Столица;;;Москва и область;;
ГОЛИДЖ;;;Москва и область;;
Скорость;;;Москва и область;;
Петербург Такси;;;Москва и область;;
Герой-1;;;Москва и область;;
АЛГА KG;;;Москва и область;;
Капитан Такси;;;Москва и область;;
Жетиген;;;Москва и область;;
Марина;;;Москва и область;;
РЕГИОН 099;;;Москва и область;;
Кронос такси;;;Москва и область;;
Партнер;;;Москва и область;;
''Ампи'';;;Москва и область;;
Солнечное;;;Москва и область;;
Taxi CRAFT;;;Москва и область;;
Стрела;;;Москва и область;;
ПРОСПЕКТ;;;Москва и область;;
Линия Коломна;;;Москва и область;;
Ахпер;;;Москва и область;;
Такси 001;;;Москва и область;;
Такси на Дубровке;;;Москва и область;;
лучший партнер;;;Москва и область;;
ИРБИС;;;Москва и область;;
ИП Ахмедбекова Роза Зафидиновна;;;Москва и область;;
МК;;;Москва и область;;
Djony;;;Москва и область;;
АРТИК;;;Москва и область;;
ИП Малышев Андрей Владимирович;;;Москва и область;;
ТАКСИ ВАН;;;Москва и область;;
Гранд Авто;;;Москва и область;;
TAXI KG7M;;;Москва и область;;
НАШИ УЛИЦЫ;;;Москва и область;;
Орехово1;;;Москва и область;;
Промстрой;;;Москва и область;;
Такси-М;;;Москва и область;;
«ЭкономПарк»;;;Москва и область;;
ПОБЕДА!;;;Москва и область;;
Life taxi;;;Москва и область;;
Смарт Кар;;;Москва и область;;
AERAS;;;Москва и область;;
"""Beluga""";;;Москва и область;;
Майк Такси Москва;;;Москва и область;;
Авеню Такси 3;;;Москва и область;;
Фрегат;;;Москва и область;;
ТеслаМобил;;;Москва и область;;
FixTaxi;;;Москва и область;;
ТАКСОПАРК 2412;;;Москва и область;;
Виват;;;Москва и область;;
ТАВР_ВДНХ;;;Москва и область;;
RAPID;;;Москва и область;;
"ООО ""Формула успеха""";;;Москва и область;;
Столичный Кучер;;;Москва и область;;
Такси Кузнецов;;;Москва и область;;
Черная Молния;;;Москва и область;;
Мажор;;;Москва и область;;
ИП Добря;;;Москва и область;;
ТАКСОМАТ;;;Москва и область;;
Времена года;;;Москва и область;;
Axi;;;Москва и область;;
Такси Пчелка;;;Москва и область;;
Фарсаж;;;Москва и область;;
Барс;;;Москва и область;;
Сокол82;;;Москва и область;;
ИЛКОМ;;;Москва и область;;
Такси Фаэтон;;;Москва и область;;
ИП Аванесян М;;;Москва и область;;
Bir bol U.B.K.;;;Москва и область;;
Такси Вояж;;;Москва и область;;
Avangard_;;;Москва и область;;
Taxfree-;;;Москва и область;;
"ооо ""ТаксиС-Мск";;;Москва и область;;
Автодром;;;Москва и область;;
Алга авто;;;Москва и область;;
Беркут;;;Москва и область;;
Такси 312;;;Москва и область;;
МАРЯМ;;;Москва и область;;
Столица;;;Москва и область;;
Амир;;;Москва и область;;
Regar;;;Москва и область;;
Такси моментум;;;Москва и область;;
АТЛАНТ;;;Москва и область;;
Авто-М;;;Москва и область;;
ИП АСАТРЯН;;;Москва и область;;
Филин Такси;;;Москва и область;;
Трансмира;;;Москва и область;;
Галион;;;Москва и область;;
Таксопарк имеет значение;;;Москва и область;;
ИП Касымбеков Мурат Туратбекович;;;Москва и область;;
Форвард;;;Москва и область;;
ООО Аккерман;;;Москва и область;;
taxi.toha;;;Москва и область;;
ГОРОД 312;;;Москва и область;;
MIXI;;;Москва и область;;
007-2;;;Москва и область;;
EASY TAXI+;;;Москва и область;;
УК Полёт;;;Москва и область;;
Такси-флай;;;Москва и область;;
Акжол;;;Москва и область;;
ИнтерТакси;;;Москва и область;;
07-24-19;;;Москва и область;;
КСЕ;;;Москва и область;;
RaM_Sity;;;Москва и область;;
САПСАН;;;Москва и область;;
Тоолос;;;Москва и область;;
ЯМЩИК;;;Москва и область;;
СПЕЦТРАНС;;;Москва и область;;
МТА-ТАКСИ;;;Москва и область;;
Оптима+;;;Москва и область;;
Taxis750;;;Москва и область;;
Таглайн;;;Москва и область;;
Ястреб;;;Москва и область;;
inTaxi;;;Москва и область;;
Амир;;;Москва и область;;
ООО Алти;;;Москва и область;;
MURAS;;;Москва и область;;
KGpark;;;Москва и область;;
NAVI;;;Москва и область;;
АвторТакси;;;Москва и область;;
02-15-02;;;Москва и область;;
ЗаказТакси.рф;;;Москва и область;;
Сан-Дор;;;Москва и область;;
Таксопарк Армада;;;Москва и область;;
Семь Холмов;;;Москва и область;;
МИРАЖ МОМЕНТУМ;;;Москва и область;;
Элика;;;Москва и область;;
"ООО ""Компания Вист Моторс""";;;Москва и область;;
Быстрое такси 1;;;Москва и область;;
Буркут моментум;;;Москва и область;;
JORGO TAXI;;;Москва и область;;
ТаймТакси;;;Москва и область;;
Такси Арго;;;Москва и область;;
TURBO LED;;;Москва и область;;
FoxTaxi;;;Москва и область;;
sancho;;;Москва и область;;
KG-PARK-312;;;Москва и область;;
Стандарт;;;Москва и область;;
Taxi1771 MOMENT;;;Москва и область;;
Шашечка;;;Москва и область;;
Развитие;;;Москва и область;;
ТОП7;;;Москва и область;;
Мостакси new;;;Москва и область;;
Стрелка;;;Москва и область;;
55В;;;Москва и область;;
Такси Голд Кар;;;Москва и область;;
АВТОСОЮЗ-ДРАЙВ;;;Москва и область;;
Муслим;;;Москва и область;;
Звезда19;;;Москва и область;;
ЭТАЛОН +;;;Москва и область;;
sochi-isaev;;;Москва и область;;
МСК Такси;;;Москва и область;;
PLATINUM.;;;Москва и область;;
Skat Такси;;;Москва и область;;
Такси Гепард М;;;Москва и область;;
Филин М;;;Москва и область;;
ТК-Лидер-М;;;Москва и область;;
Эконом-Парк;;;Москва и область;;
Таксо-;;;Москва и область;;
Линник Вита Леонидовна;;;Москва и область;;
UP СЕРВИС;;;Москва и область;;
Bombila-;;;Москва и область;;
бизнес;;;Москва и область;;
Центральная транспортная служба;;;Москва и область;;
Реми-м;;;Москва и область;;
TAXI-work;;;Москва и область;;
СТИ ТАКСИ;;;Москва и область;;
Маяк;;;Москва и область;;
ГОРОД-21 МОМЕНТУМ;;;Москва и область;;
Вертикаль;;;Москва и область;;
eshata;;;Москва и область;;
ИП Гузанов И.В.;;;Москва и область;;
Интерпрайз;;;Москва и область;;
МХ-ГРУПП;;;Москва и область;;
Taxi-Gold;;;Москва и область;;
Риалтакси;;;Москва и область;;
Азар;;;Москва и область;;
TAXI UZB;;;Москва и область;;
Саноян Mockov;;;Москва и область;;
1 ТМП;;;Москва и область;;
ИП Данилов А.С.;;;Москва и область;;
ООО Симпл Такси;;;Москва и область;;
Москва Рулит;;;Москва и область;;
Бизнес Партнёр;;;Москва и область;;
соло_раменское;;;Москва и область;;
m2;;;Москва и область;;
ООО Яркий мир;;;Москва и область;;
ИП Эсенова СМ;;;Москва и область;;
Таксопарк №15;;;Москва и область;;
Яавто;;;Москва и область;;
OPEL;;;Москва и область;;
Астра;;;Москва и область;;
Я.МСК;;;Москва и область;;
Первый Парк;;;Москва и область;;
Tez;;;Москва и область;;
BioRost;;;Москва и область;;
ИП_Паталиев;;;Москва и область;;
T-city;;;Москва и область;;
Z.TAXI;;;Москва и область;;
СимБа;;;Москва и область;;
Ночь и день;;;Москва и область;;
Командир;;;Москва и область;;
Момент;;;Москва и область;;
правДА;;;Москва и область;;
ИП Морозов Д. А.;;;Москва и область;;
Jazz.Taxi;;;Москва и область;;
FOXTROT;;;Москва и область;;
Люксмен;;;Москва и область;;
ST-такси;;;Москва и область;;
УМАР;;;Москва и область;;
Raiff Такси;;;Москва и область;;
Русская тройка;;;Москва и область;;
Анналайн 2;;;Москва и область;;
Гарант;;taxigion@yandex.ru;Набережные Челны;пр-кт Сююмбике, д.2/19, 4 этаж, офис №4;
СПРИНТ;;sergey9982@mail.ru;Набережные Челны;пр-кт Набережночелнинский, д. 64;
Класс;;rusism89@gmail.com;Набережные Челны;;
Альфа;;rafaelrafael116116@yandex.ru;Набережные Челны;;
Victory;;Liga-pressnk@yandex.ru;Набережные Челны;;
ВИН;;dionis-2000@yandex.ru;Набережные Челны;;
ИП Кирилловых С.Г.;;skurillovyh@yandex.ru;Нижний Новгород и область;ул. Станиславского, 1.;
Друзья;;mar.bug2014@yandex.ru;Нижний Новгород и область;ул. Борская, 17к4, этаж 2.;
ЭсДжет;;sjet152rus@yandex.ru;Нижний Новгород и область;;
Пегас;;Transmedservice@bk.ru;Нижний Новгород и область;ул. Верхне-Печерская, 5.;
ИП Васильева Е.С.;;VasilievaKaterina2016@yandex.ru;Нижний Новгород и область;ул. Народная, 80к1.;
ИП Ларин Евгений Алексеевич;;larin-ttt@mail.ru;Нижний Новгород и область;ул. Кирова, д. 69;
DalexCar;;dalexcar@yandex.ru;Нижний Новгород и область;ул. Героя Советского Союза Поющева, 16, офис 34.;
TAXI-ЧАС;;taxi-chas@yandex.ru;Нижний Новгород и область;ул. пр-т Ленина, д.98,  офис 221;
ООО Успех;;bkokin@yandex.ru;Нижний Новгород и область;ул.  Ленина, д.109, офис 310;
ПутиНН;;p.u.t.i.n.n@yandex.ru;Нижний Новгород и область;ул. Карла Маркса, 19, офис 301.;
ПРЕСТИЖ;;prestige-saransk@yandex.ru;Нижний Новгород и область;;
Уберлин;;driver@uberlin.ru;Нижний Новгород и область;;
Вега;;a.syryamin@yandex.ru;Нижний Новгород и область;;
Сити Такси Регион;;sittaxi2@yandex.ru;Нижний Новгород и область;ул. Алексеевская, 2.;
152.trofimov;;taxi.trofimov@yandex.ru;Нижний Новгород и область;ул. Московское шоссе, 105, корп. 8, офис 9.;
ИП Келина Г.П.;;rajabova.nina@yandex.ru;Нижний Новгород и область;;
Перемена;;peremena2312@yandex.ru;Нижний Новгород и область;ул. Ленина пр-т, д. 30В;
ГОСТ НН;;taxopark.gost@yandex.ru;Нижний Новгород и область;г. Чебоксары, ул. П. Лумумбы, д. 8, офис 135;
Либерти;;moseichuk.serg1@yandex.ru;Нижний Новгород и область;;
ЭлитНН;;;Нижний Новгород и область;ул. Гагарина пр-т, д. 25Г, офис 3;
Малинка;;maxmad1987@yandex.ru;Нижний Новгород и область;;
ГИС;;;Нижний Новгород и область;;
ЮМАН;;nikitaegorov.egorov2016@yandex.ru;Нижний Новгород и область;;
Premium Drivers;;premium.drivers@yandex.ru;Нижний Новгород и область;л. Бекетова, д. 13В оф. 110;
Лидер S;;lider-sss@yandex.ru;Нижний Новгород и область;;
АТП «Друзья»;;bmarv.2018@yandex.ru;Нижний Новгород и область;ул. Борская, 17к4, офис 5.;
Такси ДВИЖОК;;7251750@gmail.com;Нижний Новгород и область;;
Народный;;info@taxi-uptime.ru;Нижний Новгород и область;ул. Ульянова 26/11, офис 301.;
Регион21;;pakyr@mail.ru;Нижний Новгород и область;;
2x2;;shakirova4lina@yandex.ru;Новосибирск и область;ул. Николая Островского, 249;
ООО «Пилот»;;l9336100@yandex.ru;Новосибирск и область;ул. Трикотажная, 47к7, офис 1.;
Транспортная компания «Антей»;;lolita@2707070.ru;Новосибирск и область;ул. Кропоткина, 106/2.;
Ковалев;;dmikovalev@yandex.ru;Новосибирск и область;ул.Мира 61а оф.215;
Логан;;zdkaa@yandex.ru;Новосибирск и область;ул. Николая Островского, 195А, офис 6.;
Лучший в городе 54;;taxi.autopark@yandex.ru;Новосибирск и область;ул. Троллейная, 85.;
ИП Генджоян;;auto-arenda84@yandex.ru;Новосибирск и область;ул. Кропоткина, д.505, 2 этаж;
Магнит;;Magnirrodnik@ya.ru;Новосибирск и область;ул. Коминтерна, 166/3.;
ИП Денисова;;nadezhdaden@yandex.ru;Новосибирск и область;;
Руднев В.В;;rudnew.vova2014@yandex.ru;Новосибирск и область;ул. А. Лежена, 15, офис 1.;
Т54;;ishtrauh.a@yandex.ru;Новосибирск и область;;
Автопарк 54;;D2771922@yandex.ru;Новосибирск и область;;
ДИКСИ;;T89231166556@yandex.ru;Новосибирск и область;;
Фортуна;;ku8ik222@yandex.ru;Новосибирск и область;ул. Ипподромская, 16/1, 3 этаж.;
АвтоДекс;;avtodex@mail.ru;Новосибирск и область;г. Новосибирск, ул. Петухова 67 к. 7;
CITY RENTAL;;prokat54@bk.ru;Новосибирск и область;ул. Федосеева, 11.;
МЕГАПОЛИС;;directgolikova@yandex.ru;Новосибирск и область;ул. Каспийская, 2.;
TAXI SIBIRI;;adylka2014@yandex.ru;Новосибирск и область;;
АртКом;;artkom82@mail.ru;Новосибирск и область;;
Драйв-54;;drive-54@mail.ru;Новосибирск и область;;
ИП Паршин Александр Геннадьевич;;parshin1505@yandex.ru;Новосибирск и область;ул. Никитина, 18А;
ООО «АЛПЕКО»;;manzyakip@yandex.ru;Новосибирск и область;ул. Коперника, 30.;
ООО Фортуна;;saint.svg@yandex.ru;Новосибирск и область;ул. Большевистская, 125к2.;
Магнат;;denfm24@yandex.ru;Новосибирск и область;ул. Залесского, д. 23;
Кабанов НСК;;Taxopark54@gmail.com;Новосибирск и область;ул. Журинская, 80/1, офис 6.;
Инфинити_нск;;Support@regdriver.ru;Новосибирск и область;;
АвтоИмпорт;;;Новосибирск и область;пер. Авиаторов, д.60к4.;
Белков Momentum;;deti286-30-46@mail.ru;Новосибирск и область;;
Местное;;taxi-locative@yandex.ru;Новосибирск и область;ул. Державина, 28, офис 707б;
Успех;;vidmanovaksenia@yandex.ru;Новосибирск и область;ул. Высоцкого, 142/5, офис 31.;
RIO NSK;;ens963636@yandex.ru;Новосибирск и область;ул. Пермитина, д. 24/2, офис 13;
Искра;;;Омск и область;ул. Вокзальная, 8Б.;
VEZZUN Omsk;;taxi333555@bk.ru;Омск и область;г.Омск, ул. 1-я Железнодорожная, 1;
ФартАвто;;Fartavto55@yandex.ru;Омск и область;;
Легион-Омск;;legion-omsk55@yandex.ru;Омск и область;;
Гранд Омск;;agrachev2805@yandex.ru;Омск и область;;
Вертикаль;;palenicvav@yandex.ru;Омск и область;ул. Б. Хмельницкого, 130.;
Борей;;ezdok79@mail.ru;Омск и область;г.Омск, ул.Димитрова, д. 71;
Авангард;;Oks_14.12@mail.ru;Омск и область;ул. Туполева, д. 8/2.;
System-partner;;info@system-partner.ru;Омск и область;ул. Булатова 99, офис 207/1.;
Тайм_Омск;;389988@mail.ru;Омск и область;;
маяк;;Kozhevnikov.nikita@list.ru;Омск и область;ул. Завертяева, 18к4, офис 204.;
More55.ru;;sterevg@yandex.ru;Омск и область;ул. Шебалдина, 60, офис 2.;
BestPark;;BestParkOmsk@yandex.ru;Омск и область;б-р Архитекторов, д. 15;
Линкин Парк;;Shumpark@yandex.ru;Омск и область;;
Моrе55.ru;;kiselevaomsk@yandex.ru;Омск и область;ул. Шебалдина, 60, офис 2.;
Магнит;;tkmagnit55@yandex.ru;Омск и область;ул. 3-я Молодежная, д. 12;
Автолюкс;;89514273578@mail.ru;Омск и область;ул. Мамина Сибиряка, 19.;
NEXT;;seregasavinskkarpov@yandex.ru;Омск и область;;
Для Своих;;marahina.ov@yandex.ru;Омск и область;ул. 3-й Разъезд, д. 2;
U-Driver;;info@u-driver.ru;Омск и область;г. Омск, ул. Ильинская, д. 9, офис 2;
ПРЕМ;;smolnikovair@yandex.ru;Оренбург и область;ул. Яицкая, 1/3 офис 3;
Фортуна;;bryzgalovdn@yandex.ru;Оренбург и область;ул. Мира 3/1;
Ладья #1;;vitali.ronin@yandex.ru;Оренбург и область;ул. Нижний пр-д,  д. 5;
Развитие;;razvitie-orb@yandex.ru;Оренбург и область;ул. Терешковой, 263\4;
SMART;;taxi926855@yandex.ru;Оренбург и область;ул. Победы пр-т, д. 178/1;
Ремми;;remmi56@yandex.ru;Оренбург и область;;
Евразия;;krestaz@yandex.ru;Оренбург и область;;
Командор;;komandororen@yandex.ru;Оренбург и область;ул.Транспортная,2;
Комфорт56;;DrJek@mail.ru;Оренбург и область;ул. Чебеньковская, д. 7;
ООО Лидер;;Kik-13@yandex.ru;Оренбург и область;ул. Шоссейная, д. 3/3;
Автосити;;Taxi787887@mail.ru;Пенза и область;ул.Мальцева, д.5, офис4.;
СЕВик;;suchov58@ya.ru;Пенза и область;ул.Терновского 241;
Такси Европа;;europa11220968-penza@yandex.ru;Пенза и область;ул. Карла Маркса 46;
Автолайф;;avtolife-penza@yandex.ru;Пенза и область;ул.  Металлистов пр-д,  д.2;
Пилот;;pilotpenza58@yandex.ru;Пенза и область;ул. Водопьянова, д. 2;
Волга;;volga4650@yandex.ru;Пенза и область;ул.Свердлова, д. 2Ак2;
ЯТакси58;;yataxi58@yandex.ru;Пенза и область;ул. Складская, д.19;
Мегаполис;;ilina.anzhela.93@yandex.ru;Пенза и область;;
Велта;;n.doku4aev@yandex.ru;Пермь;ул. Героев Хасана, 105АА, офис 10.;
ИП Алёшин Сергей Викторович;;8464890@mail.ru;Пермь;ул. Власова, 15а;
Ride;;ride-perm@mail.ru;Пермь;ул. Светлогорская, 10А.;
КАМА;;Ariaivanova26@yangex.ru;Пермь;ул. Писарева, д. 28;
Phoenix;;paharich-job@yandex.ru;Пермь;ул. Карбышева, 78, офис 88.;
Лидер;;natasha1960si@yandex.ru;Пермь;ул. Писарева, д. 32а, офис 3;
Юкон-Авто;;ukon-taxi@yandex.ru;Пермь;ул. Баумана, 5А, 1 этаж.;
Форвард;;Forwardtax@yandex.ru;Пермь;ул. М. Горького 64 (Forward);
АвтоЛига;;AvtoLiga59@yandex.ru;Пермь;ул. Стахановская, 54Г, офис 310.;
Навигатор-Профи;;petia.stepanenko@yandex.ru;Пермь;ул. Баумана, д.5а, офис 6;
АльянсВестАвто 2;;alliancevestavto2@yandex.ru;Пермь;ул. Карпинского дом 1/а офис 3;
Перевозчик;;park.perevozchik@yandex.ru;Пермь;;
ИП Забродин;;permtax@yandex.ru;Пермь;;
ООО Аверон;;averon.taxi@yandex.ru;Пермь;ул. Чкалова 9Е-630;
Транском;;Transcom1000@yandex.ru;Пермь;;
Трансавто;;ooo.transavto.ru@yandex.ru;Пермь;ул. Переездная, 2, офис 10.;
ЕвроЛайн Карс;;eurolinecars@yandex.ru;Пермь;;
Land perm 59;;taxi.alekc@yandex.ru;Пермь;шоссе Космонавтов 111, Корп. 3, офис 106. Территория Морион;
Автолайт;;28062704@mail.ru;Пермь;;
Комета;;#N/A;Пермь;ул. Уральская, 76А.;
ООО «ВИА-М»;;elkinnn91@yandex.ru;Пермь;ул. Юрша 25/1;
159 Регион;;park.region159@yandex.ru;Пермь;ул. Ченышевского, 1.;
ДРАЙВ;;driveperm2014@yandex.ru;Пермь;ул.Кировоградская, д.38;
ЛЕВЕРНА;;leverna2017@mail.ru;Пермь;ул. Баумана, д. 5а, 2 этаж, офис 7;
Forward;;nadomaslo59@gmail.com;Пермь;ул. Лебедева, д.25Б;
ООО «Навигатор-Пермь»;;navigatorperm2016@mail.ru;Пермь;ул. Букирева, 12 офис 109;
Милениум;;taxi-milenium@yandex.ru;Ростов-на-Дону и область;;
taxi61region;;mr.golovinov@yandex.ru;Ростов-на-Дону и область;ул. Свободы, д.100В ,оф.3;
BTSK2;;taxi.btsk2@yandex.ru;Ростов-на-Дону и область;ул. Пушкина, д. 30;
100 ДОРОГ;;Rodnyeprostori@yandex.ru;Ростов-на-Дону и область;;
ИП Герасимова;;;Ростов-на-Дону и область;;
Armada;;Mushicz91@bk.ru;Ростов-на-Дону и область;ул. Жданова, 15.;
TAG;;tag-taganrog394536@yandex.ru;Ростов-на-Дону и область;ул. Ивана Голубца, д.24, оф. 1;
Зарина;;partners.rnd@yandex.ru;Ростов-на-Дону и область;;
Любимчик;;denisfedorenko57736@gmail.com;Ростов-на-Дону и область;Г.Таганрог ул.Лизы Чайкиной 39/1;
GRDtrans+;;ya.ibragim-rus@yandex.ru;Ростов-на-Дону и область;ул. Михаила Нагибина, 55А.;
Караван;;avdeev.n.a@yandex.ru;Ростов-на-Дону и область;;
Партнер;;partner-ss@yandex.ru;Ростов-на-Дону и область;ул. Комиссаровский пер., д. 145;
Партнёр+;;Timur8907@yandex.ru;Ростов-на-Дону и область;;
Сатурн;;diis9.yankelevich@yandex.ru;Ростов-на-Дону и область;;
ИП Цокарев;;ant-arktida@yandex.ru;Ростов-на-Дону и область;ул. Геологическая, 13, офис 31.;
Автодоставка;;89281010006@mail.ru;Ростов-на-Дону и область;ул. Зорге, 56.;
Ростов;;stanislav.grunin@mail.ru;Ростов-на-Дону и область;;
5 Передача;;pp.azov@yandex.ru;Ростов-на-Дону и область;;
Бриз;;ru.briz.ru@yandex.ru;Ростов-на-Дону и область;;
Городское;;onsoft15212893@yandex.ru;Ростов-на-Дону и область;;
Atlant;;Atlant.rnd.direct@yandex.ru;Ростов-на-Дону и область;;
Фаворит;;Tanya-Fab1981@yandex.ru;Ростов-на-Дону и область;;
FENIX;;feniks-taksi@yandex.ru;Ростов-на-Дону и область;;
Бизнес Партнёр;;partner@taxist.ru;Ростов-на-Дону и область;;
Моё такси;;aleskerova-vika15380157@yandex.ru;Ростов-на-Дону и область;;
Marsel-T;;marsel-t-168@mail.ru;Ростов-на-Дону и область;;
Дельта;;6662270@mail.ru;Ростов-на-Дону и область;;
Авантаж;;;Ростов-на-Дону и область;;
ПОБЕДА+;;ag19071977@yandex.ru;Ростов-на-Дону и область;ул.Горького,д. 240;
ИП Бородавка Максим Николаевич;;Borodavkag12@yandex.ru;Ростов-на-Дону и область;;
Дон Трамп;;info@taxi-tramp.ru;Ростов-на-Дону и область;;
RAO-Rostov;;Info@rao-avto.com;Ростов-на-Дону и область;ул. Победа Революции, 117Г, офис 404.;
Милан;;Peylivanov-denis@yandex.ru;Ростов-на-Дону и область;пр-т Коммунистический,  д.23/4.;
ФАВОРИТ161;;vad161@mail.ru;Ростов-на-Дону и область;ул.Северная 40;
TK Luxcar;;luxcar161@yandex.ru;Ростов-на-Дону и область;ул.Советская, д. 63;
ИП Баблоян М.О.;;ya.taxi.don@yandex.ru;Ростов-на-Дону и область;ул. Московская, д. 63, офис 328.;
Аврора;;Avrora-Taxy@yandex.ru;Ростов-на-Дону и область;;
TARGET;;targetsamara@yandex.ru;Самара и область;ул. Дмитрия Донского д. 17 (мкр.ЮГ-2);
Круиз MOMENTUM;;Igorf50893033@gmail.com;Самара и область;;
SamaraMotors;;SamaraTaxi111@yandex.ru;Самара и область;ул. Революционная, 103, офис 8.;
СамАвто;;taxi@samauto.pro;Самара и область;ул. Солнечная улица, 36А;
Вояж мотор;;Voyajmotor@yandex.ru;Самара и область;ул. Московское шоссе, д. 53, офис 209;
РМ Сервис;;maksim-ivanov-84@bk.ru;Самара и область;ул. Олимпийская, д. 57Г, офис 1;
Максим;;katin.pawel@yandex.ru;Самара и область;;
ООО ЦентрСнаб;;abdullin2001@yandex.ru;Самара и область;ул. Авроры, 110к1, офис 321.;
City Driver;;citydriver.samara@gmail.com;Самара и область;ул. Дачная, 24, офис 203.;
Первый;;andrey.trntv@yandex.ru;Самара и область;ул. Киевская, 1, офис 212А.;
Панкратова;;rhfgbdrf4@yandex.ru;Самара и область;;
ПТК Поволжье;;ptksamara@mail.ru;Самара и область;;
Единый;;vsespon@yandex.ru;Самара и область;ул. Стара Загора, д. 27, 7 этаж, офис 712 б.;
Премиум35;;79212381137@yandex.ru;Самара и область;;
Ветер;;#N/A;Самара и область;;
Форвард;;forvard163st@yandex.ru;Самара и область;ул. Роликовый переулок, д.4А;
Такса;;arestovandre@yandex.ru;Самара и область;ул. Советской Армии, д.70;
CityDriver;;Citydriver163@yandex.ru;Самара и область;ул. Чернореченская, д. 21;
Для Людей;;aum80@mail.ru;Самара и область;ул.Егорова, д.15;
СЭЖ;;89869522363@mail.ru;Самара и область;ул. Аэродромная, 13 Г;
Провинция;;vip.petrov.1973@mail.ru;Самара и область;;
Такси-Ком;;samuber@bk.ru;Самара и область;ул. Московское шоссе, д. 55, офис 513;
Союз;;shuler602streltsov@yandex.ru;Самара и область;;
Соло;;personalsolo@yandex.ru;Самара и область;ул. 22 Партсъезда, д. 207 (БЦ «Олимп»), оф. 29 (этаж 8);
bluess64;;irina-ni-v@yandex.ru;Самара и область;ул. Менделеева дом.16;
Варяг+;;varyagplus@yandex.ru;Самара и область;ул.Ташкентская, д.169, офис 226;
Волга;;taxi.vol@yandex.ru;Самара и область;г. Самара ул. Республиканская 52/32;
ИП Новиков С.В.;;nsergey23@yandex.ru;Самара и область;пр-кт Масленникова,  д.7А;
Конкорд;;konkord.taxi@yandex.ru;Самара и область;пр-кт Масленникова, д. 4, офис 31;
Админ;;89083831551@mail.ru;Самара и область;ул. Лукачёва, 10;
Ракета-Такси;;rocket.taxi.ru@yandex.ru;Санкт-Петербург и область;;
Витабо;;promo@vitabo.ru;Санкт-Петербург и область;ул. Введенского канала БЦ Фарватер, д.7, оф. 411;
Taxi Park Che;;autoprime35@yandex.ru;Санкт-Петербург и область;пр-т Победы, д. 14;
Dux.спб;;plat0n-ash@yandex.ru;Санкт-Петербург и область;ул. Пограничника Гарькавого, 14, корпус 2;
АРМАДА;;armada017@mail.ru;Санкт-Петербург и область;ул. Салова, д. 70, офис 20;
Мегасити;;taximegacity@mail.ru;Санкт-Петербург и область;ул. Ватутина, 19, ЛИТ. А, офис 407;
ООО Реестр Транспортных Средств;;rts9118822@gmail.com;Санкт-Петербург и область;ул. Солдата Корзуна д.1 к.2 оф;
iCar;;Evgeni9872774015@bk.ru;Санкт-Петербург и область;Большой проспект В.О., 83, офис 15;
ТопЛайн;;toplines.pro@yandex.ru;Санкт-Петербург и область;ул. п-к Челиева, д. 11В;
ИП Крылов;;krylovevgeniy@yandex.ru;Санкт-Петербург и область;;
АТП;;srgtrogaleff@yandex.ru;Санкт-Петербург и область;;
ИП Голубев Даниил Дмитриевич;;Golubev181@yandex.ru;Санкт-Петербург и область;;
На Дубровку+;;ozhegov15382240@yandex.ru;Санкт-Петербург и область;Набережная реки Пряжки, д. 5;
Манухова;;manuhova.marina@yandex.ru;Санкт-Петербург и область;ул. пр-кт Юрия Гагарина, д. 34/3к 1, офис 1;
ИП Куликов;;gieorg@yandex.ru;Санкт-Петербург и область;ул. Авиаконструкторов, д. 2, офис 308;
Фокус 2;;M-Taxi78@yandex.ru;Санкт-Петербург и область;ул. Тихая, 6;
А2 Парк;;info@a2corp.ru;Санкт-Петербург и область;"ул. Заозерная, 8, офис 100 ""б""";
Пиликуев А. Н.;;a999@rambler.ru;Санкт-Петербург и область;;
КЭТРИ СПБ;;katry74@yandex.ru;Санкт-Петербург и область;пр-т Маршала Жукова, д. 83к4;
Восход;;svarog1981@inbox.ru;Санкт-Петербург и область;пр-т Полюстровский, д. 28И, офис 12;
Егоров;;info@yandexspb.taxi;Санкт-Петербург и область;;
ВПК;;ok@vpk-taxi.ru;Санкт-Петербург и область;ул. Придорожная аллея, д. 18;
ИП Петров Алексей Александрович;;zam0k@rambler.ru;Санкт-Петербург и область;;
ИП Трухачёв;;pkl18@yandex.ru;Санкт-Петербург и область;ул. Ольминского, 9 пом. 4;
Главная Дорога;;taxi100981@yandex.ru;Санкт-Петербург и область;;
Шашечкин.рф;;skvct@yandex.ru;Санкт-Петербург и область;пл. Морской славы, д.1, офис 250;
Вертекс;;T3177117@yandex.ruм;Санкт-Петербург и область;ул. Тележная, д. 37 Литер Г 1-Н пом 38;
Галактика;;taxigalaktika@yandex.ru;Санкт-Петербург и область;;
Белое Такси;;Beloetaksi@mail.ru;Санкт-Петербург и область;Большой Сампсониевский пр-т, д.74;
ГольффАвто;;golff-service@yandex.ru;Санкт-Петербург и область;;
ПТС Альтернатива;;vinogradskaya24@yandex.ru;Санкт-Петербург и область;;
Энергия;;energia178@yandex.ru;Санкт-Петербург и область;Кондратьевский пр-т д.2к4, оф.422/12;
Серпантин;;alex2n@mail.ru;Санкт-Петербург и область;;
Индекс;;info.index53@yandex.ru;Санкт-Петербург и область;;
РИК;;lopsasha1406@yandex.ru;Санкт-Петербург и область;ул. Замшина, д.4;
ЭтоЯ.Такси;;dvfo-etoya.taxi@yandex.ru;Санкт-Петербург и область;;
РАПИД;;vanish88f@mail.ru;Санкт-Петербург и область;ул. Книпович, д. 9, офис 208;
Грант;;grant2608@yandex.ru;Санкт-Петербург и область;ул. Лабораторная, д. 14;
Хайп Такси;;transfirmus@yandex.ru;Санкт-Петербург и область;ул. Кузнецовская, 52 к 6.;
Такси Мини;;Aleksan.59@yandex.ru;Санкт-Петербург и область;;
ГРИН ЛАЙТ МОМЕНТУМ;;;Санкт-Петербург и область;;
Protaxist;;Taxistpro@yandex.ru;Санкт-Петербург и область;;
Тонкий лед (Санкт-Петербург);;spbtl.10.10@gmail.com;Санкт-Петербург и область;Московское шоссе,  д.42к2, офис 111.;
ИП Егоров Игорь Вадимович;;egorovspbyt@yandex.ru;Санкт-Петербург и область;ул. Ярослава Гашека, д. 4, корп. 3;
БИ-БИ Такси;;lebedevaluiza2011@yandex.ru;Санкт-Петербург и область;Пискарёвский пр-кт, д.25А;
ГК Партнер (ИП Рындухов А.В.);;89313292929@ya.ru;Санкт-Петербург и область;ул. Седова, д. 11А, 6 этаж, офис 629  БЦ Эврика;
ИП Шавель В.С;;92584@mail.ru;Санкт-Петербург и область;ул. Латышских Стрелков д.20;
ИНДИГО;;indigo.spb@bk.ru;Санкт-Петербург и область;;
"ООО ""Группа Компаний СтройТрансГрупп""";;gkstg23@yandex.ru;Санкт-Петербург и область;"Красногвардейский переулок, д.23 ""Е"", офис 213";
FasTaxi;;prak123@yandex.ru;Санкт-Петербург и область;Грузовой проезд, д. 13;
таксист.рф;;taxistrf@yandex.ru;Санкт-Петербург и область;;
Япрофи;;yaprofi-saratov@yandex.ru;Саратов и область;ул. Краевая 81, оф. 14;
02-15-02;;goptenkoyury@yandex.ru;Саратов и область;;
My Citi;;water-mir@yandex.ru;Саратов и область;г. Вольск ул. 1 мая д.1;
Спартак;;leha11.79@mail.ru;Саратов и область;;
Нэкст;;anton655-61@yandex.ru;Саратов и область;ул. Степана Разина 58 а;
Мотор Сити;;psp2063@yandex.ru;Саратов и область;;
Сапсан;;vayner80@yandex.ru;Саратов и область;;
БАРС-С;;gartaxi@yandex.ru;Саратов и область;ул. Лунная^ 46  оф.2;
ТРАНСФЕР;;zh-anvi@yandex.ru;Саратов и область;ул. Зенитная д.25;
ФартCar;;luckcar12@yandex.ru;Саратов и область;ул. Международная, 2а , офис 3;
Волга;;leo111284@yandex.ru;Саратов и область;;
СитиЛайф;;sitylife2018@yandex.ru;Саратов и область;;
Neo;;alexanderdonkin@yandex.ru;Саратов и область;;
Дальний Свет;;Pogrebnova2804@yandex.ru;Саратов и область;;
Апельсин;;apelsin-tti893654@yandex.ru;Тольятти;б-р Туполева, 12а, ТЦ «Вояж», оф. 242;
Next;;kalyanovaleksej@yandex.ru;Тольятти;;
VIP;;submission@yandex.ru;Тольятти;;
Форсаж;;;Тольятти;;
Форсаж;;forsazhtrans@yandex.ru;Тольятти;ул. Заставная 9А, оф. 108;
АВТО-ПАРТНЕР;;av-partners@yandex.ru;Тольятти;;
ТАКСИ ЧЕСТНОЕ;;truemirror@mail.ru;Тольятти;;
АвтоАльянс;;bardzimashvili.a@yandex.ua;Тольятти;;
Центр-Т;;Centr-T63@yandex.ru;Тольятти;;
Телепорт;;Frolovatlt65@yandex.ru;Тольятти;ул. Южное шоссе, д. 28с1;
Прайм;;Primetomsk@gmail.com;Томск и область;Чулымский тракт, 15с3;
Депутат и Ко;;refery-tomsk@mail.ru;Томск и область;;
Мираж;;MirageTomsk@yandex.ru;Томск и область;;
Барское такси;;BarskoeT@yandex.ru;Томск и область;Кирова пр-т, 22;
Статус-2т;;Rower555@mail.ru;Томск и область;ул. Говорова, д. 34;
Томич;;taxi.tomich@yandex.ru;Томск и область;пр-т Ленина, д.163;
Каприз;;olsevi4@yandex.ru;Томск и область;ул. Транспортная, д. 30;
ООО ПРОГРЕСС;;pashaeff@mail.ru;Томск и область;ул. Пушкина, 75;
LoGus;;mbk57@mail.ru;Тула и область;г. Орёл. ул. Кромской проезд, д.16;
АРГО;;pupik20012014@yandex.ru;Тула и область;ул.Рогожинская, 18, офис 145;
Престиж;;prestizzz@yandex.ru;Тула и область;;
Сокол;;cjrjk-71777morozov@ayndex.ru;Тула и область;;
Такси ФЕСТ;;an.romanenk0@yandex.ru;Тула и область;ул. Рогожинская, 18, оф. 146;
ИП Судоргин А.Н.;;sudorgin1095@yandex.ru;Тула и область;;
Такси Лайм;;Zolotoimost64@yandex.ru;Тула и область;г. Саратов, ул. Большая горная, 82а;
ЕДЕТTaxi;;edettaxi@yandex.ru;Тула и область;;
АртЛайн;;artlajn.pushkovartur@yandex.ru;Тула и область;;
Юрий Гагарин;;Gagarin-taxi@yandex.ru;Тула и область;;
ИП Портнягин;;Remus72@yandex.ru;Тюмень и область;ул.Шишкова д.6;
Регион 72;;teril21@yandex.ru;Тюмень и область;ул. 50 Лет Октября, 1а офис 210;
АМГ ТАКСИ ГОРОД;;amg.taxi.tumen@yandex.ru;Тюмень и область;ул.Новоибирская, 52;
ТРИУМФ;;;Тюмень и область;;
Ладья;;nat-bunyk@yandex.ru;Тюмень и область;;
Ренессанс;;yandex@taxitm.ru;Тюмень и область;;
Принцип;;taksopark72@gmail.com;Тюмень и область;ул. Камчатская, 194, оф. 204;
72 RUS;;;Тюмень и область;;
Сервис TAXI N1;;Parksuper@yandex.ru;Тюмень и область;;
Вежливые люди;;xrustalev.kostya@yandex.ru;Тюмень и область;ул. Тимуровцев, 1В;
72парк;;avtopark72@yandex.ru;Тюмень и область;ул. Коммунистическая, 70к3с6, офис 23.;
Галатея;;anashvab@yandex.ru;Тюмень и область;;
Кристалл;;Ooocrystal74@yandex.ru;Тюмень и область;;
Русь;;xim72@mail.ru;Тюмень и область;ул. Демьяна Бедног, д. 98к1;
Империя;;sergei001557@gmail.com;Тюмень и область;;
TMN Park;;novik849@yandex.ru;Тюмень и область;ул. Клары Цеткин, д. 29/5;
"такси ""Столица""";;alex.yablonskih2017@yandex.ru;Тюмень и область;;
Green-Auto;;green-auto@bk.ru;Тюмень и область;ул. Клары Цеткин, 61, корп. 3/8;
АМГ ТАКСИ ТЮМЕНЬ;;amg.taxi.tumen@yandex.ru;Тюмень и область;ул. Новосибирская, 52;
Немец;;chuprov1982@mail.ru;Тюмень и область;;
Бисмарк;;don.cuzn@yandex.ru;Ульяновск и область;ул. Октябрьская, д.51, стр. 3, офис 7 а;
Laif;;Taxi.laif757454@yandex.ru;Ульяновск и область;;
Партнер ИП АЛЕЕВ;;ulmarat@yandex.ru;Ульяновск и область;ул. Урицкого, д. 45, офис 16;
ООО ФОРСАЖ Астрахань;;Forsage73rds@yandex.ru;Ульяновск и область;;
Лучший;;katrinka15425393@yandex.ru;Ульяновск и область;;
Партнер+;;yataxi.p@yandex.ru;Ульяновск и область;ул. Локомотивная, 16, корпус 2, офис 302;
НашеТакси;;yandex969969@gmail.com;Ульяновск и область;ул.Юности, 2, стр.3, оф.2;
Таксосервис;;g-kuznesova@yandex.ru;Ульяновск и область;ул. Октябрьская, 51с3;
Первый Таксопарк;;1taxopark@mail.ru;Ульяновск и область;ул. Транспортная, 27а, каб.3;
Федеральный партнёр;;maksym.obukhov@yandex.ru;Уфа;ул. 1-ый Красногвардейский проезд, д. 15, 728 офис;
ИП Сабитов Т.Ф.;;Taxxi-Ufa@yandex.ru;Уфа;ул. Коммунистическая, д. 118/1, оф. 5;
Идеал-Авто;;a.valeev40443@gmail.com;Уфа;;
ТРЁШКА;;#N/A;Уфа;ул. 50 лет Октября, 15, офис 65.;
Офис102-центр;;job@office102.ru;Уфа;ул. Р. Зорге, 9/5, офис 102.;
Каретный двор;;karetnijdvor@yandex.ru;Уфа;;
Анхель;;Ruslan0287@mail.ru;Уфа;;
Современное такси;;spark.ignatiew2017@yandex.ru;Уфа;ул. Мира, 46;
ГАРАНТ;;tranzit-citi-taxi@yandex.ru;Уфа;ул. Менделеева, 137Б, 5 этаж, офис 502.;
sky;;sky_taxi_ufa@mail.ru;Уфа;ул. Парковая, 2, офис 1.;
ГосАвто;;Genko-93@yandex.ru;Уфа;;
Афарин;;soroka102rb@yandex.ru;Уфа;;
Бриллиант;;nikita_800@mail.ru;Уфа;;
Интеграл;;arzak85@yandex.ru;Уфа;ул.  Маршала Жукова, д. 22;
Лайм;;taxiservismeleuz@yandex.ru;Уфа;;
Гарант;;taxiya.garant@yandex.ru;Уфа;ул.Комсомольская, д.2;
Красный дракон;;reddragon110418@yandex.ru;Уфа;;
Аплюс;;Ayk102@yandex.ru;Уфа;ул. Лесотехникума, 15.;
УБГ.Такси;;ubgr.taxi@yandex.ru;Уфа;ул. Айская, д. 46, оф. 502;
Патриот;;patriot11326356-salavat@yandex.ru;Уфа;;
Ника;;m.aibulat102@yandex.ru;Уфа;ул. Академика Королева, д. 4, оф. 9;
РУМЕР;;rumer.taxi@yandex.ru;Уфа;ул.Революционная, д.154/1;
ULTRA;;faxriddinov0610@gmail.ru;Уфа;ул. Бакалинская, д. 25;
Город4212;;zaurmaksudov@yandex.ru;Хабаровск;ул. Краснореченская, 159а-101;
Парус;;zhidovcko2018@gmail.com;Хабаровск;ул. Мичурина, 7;
Константинова Анна Анатольевна;;s.s.kazakov@mail.ru;Хабаровск;пер. Промышленный, 2;
DIL;;dkorachaev@yandex.ru;Хабаровск;;
САМУРАЙ;;721127@bk.ru;Хабаровск;ул. Крещенская, 2/1;
АИС;;slava.van-chzhanshan@ya.ru;Хабаровск;ул. Краснореченская,139, офис 211;
Амур;;Lishik09@mail.ru;Хабаровск;;
GreenTaxi27;;greentaxi27@yandex.ru;Хабаровск;ул. Союзная, 23В;
Авангард;;legotinanton2017@yandex.ru;Челябинск и область;г. Копейск, ул. Кожевникова, 47, цокольный этаж.;
Счастливое время;;ayusupov74@yandex.ru;Челябинск и область;ул. 2-ой Северокрымский переулок, 10/1, офис 209;
ИП Погонялкин;;alaalexeev@yandex.ru;Челябинск и область;ул. Неглинная, 108;
Норма;;normataxi@yandex.ru;Челябинск и область;Университетская набережная, 66А, офис 5.;
All time;;All-time29@yandex.ru;Челябинск и область;ул. Косарева, 2А, 2 этаж;
Urban;;urban-chely@mail.ru;Челябинск и область;;
Пегас;;Alfa-grifon174@yandex.ru;Челябинск и область;ул. Рязанская, 14, офис 214.;
КРИСТАЛЛ;;kris-074@yandex.ru;Челябинск и область;;
Череповец;;economgazel@mail.ru;Челябинск и область;ул. Первомайская, 42, офис 1 , этаж 1;
Эксперт 74;;ekspert.74@yandex.ru;Челябинск и область;ул. Цинковая, 8, офис 213;
ИП Худяков Михаил Андреевич;;hydomiha@gmail.com;Челябинск и область;ул. 3 Интернационала, 90;
ИДЕАЛ;;shumakova.iryna@yandex.ru;Челябинск и область;ул. Салавата Юлаева, 29, помещение 203.;
ИП Кульбако;;vovus1979@yandex.ru;Челябинск и область;;
Алессио;;;Челябинск и область;пр-т Победы, 293;
Изумруд;;superior-taxi@yandex.ru;Челябинск и область;;
Ферлайн;;msp15142783@yandex.ru;Челябинск и область;ул. Каслинская, 3-414.;
Гараж;;pestovvaleri@yandex.ru;Челябинск и область;Копейское шоссе, 35Б, офис 213.;
ВИРАЖ74;;Chel.virag74@yandex.ru;Челябинск и область;2-ой Северо-Крымский переулок, 10/1, офис 201;
Альянс- Урал;;89127779944@mail.ru;Челябинск и область;;
skodnye;;skodnye@ya.ru;Челябинск и область;;
Пульс;;egorkakrasikov@yandex.ru;Челябинск и область;;
ТАКСИ.ru;;baevmarat2016@yandex.ru;Челябинск и область;;
Бромчики;;cheldrive@yandex.ru;Челябинск и область;ул. Косарева, 2, оф. 602;
ФАВОРИТ;;egor-novozhenov@mail.ru;Челябинск и область;пр-т Победы, 165, офис 100;
ТаксиТ;;taxit74@yandex.ru;Челябинск и область;;
ОПТИМА;;uberchel174@mail.ru;Челябинск и область;Ленина пр-т, 38;
Поехали;;aton.novoselsky@yandex.ru;Челябинск и область;г. Копейск, ул. Калинина, 7.;
In Time;;kstsb@mail.ru;Челябинск и область;ул. Грибоедова, 57А, офис 15;
Премиум;;aindrea.m@yandex.ru;Челябинск и область;Копейск, ул. Энергетиков, 5, офис №6;
Кондор;;taxiparkreal2@yandex.ru;Челябинск и область;;
Урал-М;;;Челябинск и область;;
Lemax;;lemax174@yandex.ru;Челябинск и область;;
Прокат Авто;;Miass-prokat@mail.ru;Челябинск и область;ул. Уральских Добровольцев, 8;
Мегаполис Челябинск;;Mega_7500000@mail.ru;Челябинск и область;пр-т Ленина, д. 23Б, офис 5;
TaxiparkDresden;;taxiparkdresden@yandex.ru;Челябинск и область;ул. Загородная, 12;
Мотор;;motor174as@mail.ru;Челябинск и область;;
Союз;;s2337778@yandex.ru;Челябинск и область;ул. 40-летия Октября, 19, оф. 1;
Императив;;tsilikova@list.ru;Челябинск и область;пр-кт Свердловский, 7А.;
Такси сити;;reef34@mail.ru;Челябинск и область;;
ИП Плетнев Михаил Александрович;;;Челябинск и область;ул. Цвиллинга, 57А;
Федеральное такси - Ярославль;;info@fedtaxi.ru;Ярославль и область;пр-кт Октября, 88В, офис 28.;
СаВа44;;harchinvasily@yandex.ru;Ярославль и область;ул. Ткачей, 7 (ТЦ «Галерея«), 2 этаж, оф.16;
Таксилайк;;taxilike76@yandex.ru;Ярославль и область;;
Автолайф-комфорт;;yar-nis@yandex.ru;Ярославль и область;ул. Республиканская, 112, офис №1;
ДарАвто;;VOLKOV.NIKOLA13@YANDEX.RU;Ярославль и область;ул. Флотская, 14;
Альфа;;rosatlastaxi@yandex.ru;Ярославль и область;Ленинградский пр-т, 27;
